Store_code,Store_name,Address,Region,Province,District,KM,Province_ID
243,AGI - 200 Tinh Lo 942,"Số 200 Đường Tỉnh Lộ 942, Thị trấn Mỹ Luông, Huyện Chợ Mới, Tỉnh An Giang",Mekong2,An Giang,Cho Moi,193,54
406,AGI - Nguyen Huu Canh,"Nguyễn Hữu Cảnh, Ấp Long Hòa, Thị Trấn Chợ Mới, Huyện Chợ Mới, Tỉnh An Giang",Mekong2,An Giang,Cho Moi,205,54
548,AGI - 3855 - 3857 BẠCH ĐẰNG,"3855 - 3857 Đường Bạch Đằng, Ấp An Hưng, Thị trấn An Phú, Huyện An Phú, Tỉnh An Giang",Mekong2,An Giang,An Phu,268,54
134,AGI - 112 Nguyen Van Thoai,"112 Nguyễn Văn Thoại, Khóm 6, P. Châu Phú A, TP. Châu Đốc, An Giang",Mekong2,An Giang,Chau Doc,257,54
396,AGI - 5-5A-7 Nguyen Tri Phuong,"5-5A-7 Nguyễn Tri Phương, Tổ 10, Khóm Hoà Bình, Phường Vĩnh Mỹ, TP Châu Đốc, Tỉnh An Giang",Mekong2,An Giang,Chau Doc,256,54
360,AGI - Le Loi,"Lê Lợi, P.Châu Phú B, Tp.Châu Đốc, An Giang.",Mekong2,An Giang,Chau Doc,256,54
104,AGI - 2/5 Ton Duc Thang,"2/5 Tôn Đức Thắng, F Mỹ Bình, TP Long Xuyên, An Giang.",Mekong2,An Giang,Long Xuyen,203,54
125,AGI - 221/7 Ha Hoang Ho,"221/7 Hà Hoàng Hổ, Phường Mỹ Xuyên, TP. Long Xuyên, An Giang",Mekong2,An Giang,Long Xuyen,202,54
231,AGI - 315/4 Tran Hung Dao,"315/4 Trần Hưng Đạo, Phường Mỹ Long, TP Long Xuyên, An Giang.",Mekong2,An Giang,Long Xuyen,202,54
359,AGI - 956-958 Tran Hung Dao,"956-958 Trần Hưng Đạo, khóm Bình Khánh 2, P.Bình Khánh, Tp.Long Xuyên, An Giang.",Mekong2,An Giang,Long Xuyen,205,54
220,AGI - 110 Ton Duc Thang,"110 Tôn Đức Thắng, P.Long Thạnh, TX. Tân Châu, Tỉnh An Giang",Mekong2,An Giang,Tan Chau,209,54
267,AGI - 126 Tran Phu,"Số 126, đường Trần Phú, TT Phú Hòa,huyện Thoại Sơn ,tỉnh An Giang",Mekong2,An Giang,Thoai Son,209,54
626,AGI - 34 Trần Hưng Đạo,"34 đường Trần Hưng Đạo, thị trấn Tri Tôn, huyện Tri Tôn, tỉnh An Giang",Mekong2,An Giang,Tri Ton,255,54
820,AGI - 224 Nguyễn Thị Hạnh,"Số 224, Nguyễn Thị Hạnh, TT. Óc Eo, huyện Thoại Sơn, tỉnh An Giang",Mekong2,An Giang,Thoai Son,239,54
911,AGI - Thành Thái,"Đường Thành Thái, Khóm Bình Khánh 6, Phường Bình Khánh, Thành Phố Long Xuyên, Tỉnh An Giang",Mekong2,An Giang,Long Xuyen,205,54
448,BVT - 62 Nguyen Huu Tho,"62 Nguyễn Hữu Thọ, Phường Phước Trung, Thành phố Bà Rịa, Tỉnh Bà Rịa - Vũng Tàu.",SouthEast2,Ba Ria - Vung Tau,Ba Ria,83,52
195,BVT - 85 Nguyen Thanh Dang,"85 Nguyễn Thanh Đằng, P Phước Hiệp, Tp Bà Rịa, tỉnh Bà Rịa - Vũng Tàu",SouthEast2,Ba Ria - Vung Tau,Ba Ria,83,52
609,BVT - Go! Mall Bà Rịa,"Go! Mall Bà Rịa , Đường Lê Thành Duy, P. Phước Hiệp, TP. Bà Rịa, Tỉnh Bà Rịa - Vũng Tàu",SouthEast2,Ba Ria - Vung Tau,Ba Ria,83,52
229,BVT - 236-238 Hung Vuong,"Số 236-238 đường Hùng Vương, thị trấn Ngãi Giao, huyện Châu Đức, tỉnh Bà Rịa Vũng Tàu",SouthEast2,Ba Ria - Vung Tau,Chau Duc,81,52
393,BVT - C50 Tinh Lo 44A,"C50 Tỉnh Lộ 44A, Ấp Phước Lộc, Xã Phước Hưng, Huyện Long Điền, Tỉnh Bà Rịa – Vũng Tàu.",SouthEast2,Ba Ria - Vung Tau,Long Dien,94,52
326,BVT - 2181 Quoc Lo 51,"2181-2183 Quốc lộ 51, thôn Tân Phú, thị trấn Phú Mỹ, huyện Tân Thành, tỉnh Bà Rịa - Vũng Tàu.",SouthEast2,Ba Ria - Vung Tau,Tan Thanh,54,52
399,BVT - Quoc Lo 51,"Quốc Lộ 51, Khu phố Ông Trịnh, Phường Tân Phước, Thị Xã Phú Mỹ, Tỉnh Bà Rịa - Vũng Tàu",SouthEast2,Ba Ria - Vung Tau,Tan Thanh,69,52
497,BVT - 305 Nguyễn An Ninh,"305 Nguyễn An Ninh, phường 09, TP. Vũng Tàu , Tỉnh Bà Rịa-Vũng Tàu",SouthEast2,Ba Ria - Vung Tau,Vung Tau,102,52
287,BVT - 1107-1109 Duong 30/4,"1107 - 1109 đường 30/4, phường 11, TP Vũng Tàu, tỉnh Bà Rịa Vũng Tàu",SouthEast2,Ba Ria - Vung Tau,Vung Tau,94,52
204,BVT - 559-563 Rach Dua,"559-561-563 đường 30/4, P. Rạch Dừa, Tp. Vũng Tàu, tỉnh Bà  Rịa - Vũng Tàu",SouthEast2,Ba Ria - Vung Tau,Vung Tau,97,52
573,BVT - 288 Truong Cong Dinh,"288 (số cũ 231) Trương Công Định, Phường 3, Thành phố Vũng Tàu, Tỉnh Bà Rịa – Vũng Tàu.",SouthEast2,Ba Ria - Vung Tau,Vung Tau,104,52
651,BVT - D1 - 3/5 Nguyễn Hữu Cảnh,"D1 – 3/5 Nguyễn Hữu Cảnh, Trung tâm Đô thị Chí Linh, Phường Nguyễn An Ninh, Thành phố Vũng Tàu, Tỉnh Bà Rịa – Vũng Tàu",SouthEast2,Ba Ria - Vung Tau,Vung Tau,99,52
751,BVT - 177 Nguyễn Hữu Cảnh,"177 Nguyễn Hữu Cảnh, Phường Thắng Nhất, Thành phố Vũng Tàu, Tỉnh Bà Rịa – Vũng Tàu",SouthEast2,Ba Ria - Vung Tau,Vung Tau,99,52
510,BVT - 6 - 8 Huỳnh Minh Thạnh,"6 – 8 đường Huỳnh Minh Thạnh, Thị trấn Phước Bửu, Huyện Xuyên Mộc, Tỉnh Bà Rịa – Vũng Tàu",SouthEast2,Ba Ria - Vung Tau,Xuyen Moc,103,52
819,BVT - 2/8 Đường Võ Thị Sáu,"2/8, Đường Võ Thị Sáu, Khu phố Hải Tân, Thị trấn Phước Hải, Huyện Đất Đỏ, Tỉnh Bà Rịa-Vũng Tàu",SouthEast2,Ba Ria - Vung Tau,Dat Do,99,52
841,BVT - 189 Đường 328,"189, Đường 328, Ấp 4, Tổ 9, Xã Hòa Bình, Huyện Xuyên Mộc, Tỉnh Bà Rịa Vũng Tàu",SouthEast2,Ba Ria - Vung Tau,Xuyen Moc,102,52
896,BVT - 1129 KP Thị Vải,"Thửa đất số 1129, tờ bản đồ số 22, Tổ 02, Khu phố Thị Vải, Phường Mỹ Xuân, Thị Xã Phú Mỹ, Tỉnh Bà Rịa - Vũng Tàu",SouthEast2,Ba Ria - Vung Tau,Phu My,59,52
928,BVT - 521 Đường số 6,"Thửa đất số 521, tờ bản đồ số 8, đường số 6, thôn Vĩnh Sơn, Xã Nghĩa Thành, Huyện Châu Đức, Tỉnh Bà Rịa - Vũng Tàu",SouthEast2,Ba Ria - Vung Tau,Chau Duc,79,52
815,BGI - 315 Thân Cảnh Phúc,"315 đường Thân Cảnh Phúc Tổ dân phố Trần Hưng Đạo, thị trấn Chũ, huyện Lục Ngạn, tỉnh Bắc Giang",North,Bac Giang,Luc Ngan,1712,11
642,BGI - Go! Bắc Giang,"Big C Bắc Giang, Xã Tân Tiến, Thành Phố Bắc Giang, Tỉnh Bắc Giang",North,Bac Giang,Bac Giang,1672,11
615,BGI - 161 Lê Lợi,"161 đường Lê Lợi, phường Lê Lợi , thành phố Bắc Giang, tỉnh Bắc Giang",North,Bac Giang,Bac Giang,1673,11
661,BGI - A16 Golden Mall,"Kiot A16 chân đế TTTM Golden Mall, Thị Trấn Thắng, Huyện Hiệp Hoà, Tỉnh Bắc Giang",North,Bac Giang,Hiep Hoa,1677,11
302,BLI - 24-26 Tran Phu,"số 24-26, đường Trần Phú, Phường 3, TP bạc Liêu, Tỉnh Bạc Liêu.",Mekong2,Bac Lieu,Bac Lieu,279,63
183,BLI - 313-315 Tran Phu,"313 - 315 Đường Trần Phú, P.7, Tp. Bạc Liêu, Bạc Liêu",Mekong2,Bac Lieu,Bac Lieu,278,63
250,BLI - 160-162 Quoc Lo 1A,"160-162 , Đường QL1A , Phường Hộ Phòng , TX Giá Rai , Tỉnh Bạc Liêu",Mekong2,Bac Lieu,Gia Rai,301,63
650,BNI - 71A đường Nguyễn Cao,"71A đường Nguyễn Cao, phường Ninh Xá, thành phố Bắc Ninh, tỉnh Bắc Ninh",North,Bac Ninh,Bac Ninh,1653,16
319,BNI - 30-32 Pho Cho,"30-32 Phố Chờ thị trấn Chờ, huyện Yên Phong, tỉnh Bắc Ninh.",North,Bac Ninh,Yen Phong,1657,16
157,BTR - 179 Nguyen Dinh Chieu,"179 Nguyễn Đình Chiểu, P.2, Tp. Bến Tre, Tỉnh Bến Tre",Mekong1,Ben Tre,Ben Tre,106,56
190,BTR - 72B Dong Khoi,"72B Đại Lộ Đồng Khởi, Phú Tân, TP. Bến Tre, Bến Tre",Mekong1,Ben Tre,Ben Tre,104,56
382,BTR - 376 DT883,"376 DT883, ấp Quới Hòa Đông, xã Quới Sơn, huyện Châu Thành, tỉnh Bến Tre.",Mekong1,Ben Tre,Chau Thanh,101,56
593,BTR - 72/7B To 9,"72/7B Tổ 9, Khu Phố 2, TT Chợ Lách, Huyện Chợ Lách, Tỉnh Bến Tre",Mekong1,Ben Tre,Cho Lach,125,56
632,BTR - 263 QL60,"263 Đường QL60, Khu Phố 2, Thị Trấn Mỏ Cày, Huyện Mỏ Cày Nam, Tỉnh Bến Tre",Mekong1,Ben Tre,Mo Cay Nam,120,56
844,BTR - Nguyễn Thị Định,"Đường Nguyễn Thị Định, Khu phố 2, Thị trấn Giồng Trôm, Huyện Giồng Trôm, Tỉnh Bến Tre",Mekong1,Ben Tre,Giong Trom,124,56
213,BDI - 256 Ngo Gia Tu,"256 Ngô Gia Tự, phường Bình Định, thị xã An Nhơn, Tỉnh Bình Định",Central2,Binh Dinh,An Nhon,636,37
252,BDI - 9 Vo Nguyen Giap,"Cửa hàng số 9 Võ Nguyên Giáp, P. Đống Đa, Tp. Quy Nhơn, Bình Định",Central2,Binh Dinh,Qui Nhon,622,37
353,BDI - 394 Nguyen Thai Hoc,"394 Nguyễn Thái Học, phường Quang Trung, thành phố Quy Nhơn, tỉnh Bình Định",Central2,Binh Dinh,Qui Nhon,619,37
630,BDI - 666 Nguyễn Thái Học,"666 Nguyễn Thái Học, Phường Quang Trung, TP Quy Nhơn, Tỉnh Bình Định",Central2,Binh Dinh,Qui Nhon,619,37
874,BDI - 47 Trần Phú,"47 Trần Phú, thị trấn Diêu Trì, huyện Tuy Phước, tỉnh Bình Định, Thị Trấn Diêu Trì, Huyện Tuy Phước, Tỉnh Bình Định",Central2,Binh Dinh,Tuy Phuoc,625,37
824,BDU - 12 DT741,"số 12, Đường DT741, Khu Phố 3, Thị Trấn Tân Bình, Huyện Bắc Tân Uyên, Tỉnh Bình Dương",SouthEast2,Binh Duong,Tan Uyen,37,47
698,BDU - 01 Đường NC,"01 Đường NC, Khu phố Đồng Sổ, Thị trấn Lai Uyên, Huyện Bàu Bàng, Tỉnh Bình Dương",SouthEast2,Binh Duong,Bau Bang,46,47
550,BDU - Lô CC1,"Lô CC1, đường N1, P. Mỹ Phước, TX. Bến Cát, Bình Dương",SouthEast2,Binh Duong,Ben Cat,33,47
194,BDU - 426 Duong 30 thang 4,"426 đường 30 tháng 4, khu phố 2, phường Mỹ Phước, Thị xã Bến Cát, Tỉnh Bình Dương",SouthEast2,Binh Duong,Ben Cat,36,47
683,BDU - 101 Hùng Vương,"101, đường Hùng Vương , phường Mỹ Phước , thị xã Bến Cát , tỉnh Bình Dương",SouthEast2,Binh Duong,Ben cat,36,47
810,BDU - 103 Quốc Lộ 13,"Thửa đất số 103, tờ bản đồ số 26, đường Quốc Lộ 13, Phường Tân Định, thị xã  Bến Cát, Tỉnh Bình Dương.",SouthEast2,Binh Duong,Ben cat,22,47
821,BDU - 4650 đường DB8,"Thửa 4650, tờ bản đồ số: 58, đường DB8, khu đô thị Mỹ Phước 2, phường Mỹ Phước, thị xã Bến Cát, tỉnh Bình Dương.",SouthEast2,Binh Duong,Ben Cat,36,47
461,BDU - 01 Ngô Thời Nhậm,"01 Ngô Thì Nhậm, Phường Dĩ An, Thành phố Dĩ An, Tỉnh Bình Dương",SouthEast2,Binh Duong,Di An,6,47
502,BDU - 533/12B KP Đông Thành,"533/12B Khu phố Đông Thành, Phường Tân Đông Hiệp, Thành phố Dĩ An, Tỉnh Bình Dương",SouthEast2,Binh Duong,Di An,4,47
139,BDU - 283 Nguyen An Ninh,"283 Nguyễn An Ninh, P. Dĩ An, Thành phố Dĩ An, Bình Dương",SouthEast2,Binh Duong,Di An,4,47
255,BDU - 27/20A Nguyen Trai,"27/20A Nguyễn Trãi, Kp Thống Nhất 1, P Dĩ An, Thành phố Dĩ An, Bình Dương.",SouthEast2,Binh Duong,Di An,3,47
222,BDU - 119-121 An Binh,"119-121 đường An Bình, phường An Bình, Thành phố Dĩ An, tỉnh Bình Dương.",SouthEast2,Binh Duong,Di An,6,47
480,BDU - 02 Lê Hồng Phong,"02 Lê Hồng Phong, Khu Phố Đông Thành, Phường Tân Đông Hiệp, Thành Phố Dĩ An, Tỉnh Bình Dương",SouthEast2,Binh Duong,Di An,4,47
771,BDU - 130 Nguyễn Thị Minh Khai,"130 Nguyễn Thị Minh Khai, khu phố Tân Long, phường Tân Đông Hiệp, thị xã Dĩ An, tỉnh Bình Dương",SouthEast2,Binh Duong,Di An,3,47
112,BDU - 2/23 Ap Binh Duc,"2/23 Ấp Bình Đức, Xã Bình Hòa, Thành phố Thuận An, Bình Dương",SouthEast2,Binh Duong,Thuan An,5,47
555,BDU - Lô DC37 Đường D33,"Ô 06-07-08, Lô DC37, Đường D33, KDC Việt Sing, Phường An Phú, Thành phố Thuận An, Tỉnh Bình Dương",SouthEast2,Binh Duong,Thuan An,6,47
232,BDU - 39 Doc Lap,"39 Độc Lập, Kp1, Thị Trấn Phước Vĩnh, Phú Giáo, Bình Dương",SouthEast2,Binh Duong,Phu Giao,51,47
602,BDU - Ngã Tư Bến Trám,"Thửa đất số 109, tờ bản đồ 19, đường DT741, ấp 1A, xã Phước Hoà, huyện Phú Giáo, tỉnh Bình Dương",SouthEast2,Binh Duong,Phu Giao,45,47
244,BDU - DT 741,"DT741, khu phố Phú Nghị. Hòa Lợi, Thị Xã Bến Cát, Bình Dương",SouthEast2,Binh Duong,Ben Cat,24,47
278,BDU - Duong D10,"đường D10, phường Thới Hoà, thị xã Bến Cát, tỉnh Bình Dương",SouthEast2,Binh Duong,Ben Cat,33,47
227,BDU - 26 Duong DT 746,"Đất số 26 Đường DT746, Khu phố Khánh Thạnh, Phường Tân Phước Khánh, Thị Xã Tân uyên, Bình Dương",SouthEast2,Binh Duong,Tan Uyen,6,47
270,BDU - 1111B Ap Vinh Phuoc,"1111B, ấp Vĩnh Phước  tổ 11, xã Thái Hòa, Tân Uyên, Bình Dương",SouthEast2,Binh Duong,Tan Uyen,8,47
716,BDU - Hội Nghĩa,"xã Hội Nghĩa, Thị xã Tân Uyên, Tỉnh Bình Dương",SouthEast2,Binh Duong,Tan Uyen,24,47
638,BDU - 03-05 Tự Do,"03- 05 Tự Do, Khu phố 2, Thị trấn Dầu Tiếng, Huyện Dầu Tiếng, tỉnh Bình Dương",SouthEast2,Binh Duong,Dau Tieng,66,47
762,BDU - 802 DB4,"thửa đất số 802, tờ bản đồ số 20, đường DB4, khu phố 4, Phường Vĩnh Tân, Thị xã Tân Uyên, Tỉnh Bình Dương.",SouthEast2,Binh Duong,Tan Uyen,29,47
363,BDU - 272 Dai Lo Binh Duong,"272 tổ 3 khu 2, Đại Lộ Bình Dương, phường Phú Hòa, TP. Thủ Dầu Một, Tỉnh Bình Dương.",SouthEast2,Binh Duong,Thu Dau Mot,11,47
552,BDU - 107 đường số 8,"107 đường số 8 KDC Hiệp Thành 3, Thủ Dầu Một, Bình Dương",SouthEast2,Binh Duong,Thu Dau Mot,16,47
561,BDU - Chợ Phú Chánh A,"Thửa đất số 13, tờ bản đồ 50, Khu tái định cư Phú Chánh, Phường Hòa Phú, Thành phố Thủ Dầu Một, Tỉnh Bình Dương",SouthEast2,Binh Duong,Thu Dau Mot,22,47
295,BDU - 1/2 Phu Loi,"1/2 Phú Lợi, Phường Phú Hoà, Tp. Thủ Dầu Một, Tỉnh Bình Dương",SouthEast2,Binh Duong,Thu Dau Mot,15,47
118,BDU - 182 CMT8,"182 Cách Mạng Tháng Tám, P. Chính Mỹ, Tp. Thủ Dầu Một, Bình Dương",SouthEast2,Binh Duong,Thu Dau Mot,18,47
704,BDU - 44 Quốc Lộ 1K,"44 Quốc Lộ 1K, P. Đông Hoà, TP. Dĩ An, tỉnh Bình Dương",SouthEast2,Binh Duong,Di An,8,47
212,BDU - 01 Pasteur,"Số 01 Pasteur , Khu Phố Chợ, Thị Trấn Lái Thiêu, Thành phố Thuận An, Bình Dương",SouthEast2,Binh Duong,Thuan An,7,47
537,BDU - 416 Cách Mạng Tháng Tám,"416 Cách Mạng Tháng Tám, Phường Phú Cường, Thành phố Thủ Dầu Một, Tỉnh Bình Dương",SouthEast2,Binh Duong,Thu Dau Mot,17,47
513,BDU - 626 Cách Mạng Tháng Tám,"626 Cách Mạng Tháng Tám, Phú Cường, Thành phố Thủ Dầu Một, Tỉnh Bình Dương",SouthEast2,Binh Duong,Thu Dau Mot,15,47
536,BDU - 81 Đại lộ Bình Dương,"81 Đại lộ Bình Dương, Phường Phú Thọ, Thành phố Thủ Dầu Một, Tỉnh Bình Dương",SouthEast2,Binh Duong,Thu Dau Mot,13,47
90,BDU - 13 Yersin,"13 Yersin, Tổ 15, Khu 01, P. Phú Cường, TP. Thủ Dầu 1, Tỉnh Bình Dương",SouthEast2,Binh Duong,Thu Dau Mot,16,47
246,BDU - E3/1 KP Binh Thuan 2,"E3/1 Kp Bình Thuận 2, KDC Thuận Giao,Thành phố Thuận An, Bình Dương",SouthEast2,Binh Duong,Thuan An,9,47
421,BDU - 60 Nguyen Van Tiet,"60 Nguyễn Văn Tiết, Phường Lái Thiêu, Thành phố Thuận An, Tỉnh Bình Dương.",SouthEast2,Binh Duong,Thuan An,6,47
469,BDU - 67/13 Đường ĐT743,"67/13 đường DT743, Khu phố Bình Phước B, Phường Bình Chuẩn, Thành phố Thuận An, Tỉnh Bình Dương",SouthEast2,Binh Duong,Thuan An,8,47
477,BDU - 30/2 ĐT 743,"30/2 ĐT 743, Khu phố Bình Quới A, Phường Bình Chuẩn, Thành phố Thuận An, Tỉnh Bình Dương.",SouthEast2,Binh Duong,Thuan An,9,47
514,BDU - 14 Nguyễn Du,"14 Nguyễn Du, Phường Bình Hòa, Thành Phố Thuận An, Tỉnh Bình Dương",SouthEast2,Binh Duong,Thuan An,4,47
578,BDU - KP 1A An Phu,"Khu Phố 1A, Phường An Phú, Thành Phố Thuận An, Tỉnh Bình Dương",SouthEast2,Binh Duong,Thuan An,5,47
726,BDU - DC79 đường DA6,"Ô 25 – 27, lô DC79, đường DA6, KDC Việt - Sing, Phường Thuận Giao, Thành phố Thuận An, Tỉnh Bình Dương",SouthEast2,Binh Duong,Thuan An,7,47
729,BDU - 4/4 Thủ Khoa Huân,"04/4 đường Thủ Khoa Huân, Khu Phố Bình Phước A, Phường Bình Chuẩn, Thành Phố Thuận An, Tỉnh Bình Dương.",SouthEast2,Binh Duong,Thuan An,9,47
784,BDU - 534 - 537 DT742,"Thửa đất số 534 và 537,  tờ bản đồ số 11, đường DT742, Tổ 1, Khu Phố Phú Trung, Phường Phú Chánh, Thị Xã Tân Uyên, Tỉnh Bình Dương.",SouthEast2,Binh Duong,Tan Uyen,21,47
833,BDU - 41 DT741,"41 Khu phố 3, Đường ĐT741, phường Chánh Phú Hòa, thị xã Bến Cát, tỉnh Bình Dương.",SouthEast2,Binh Duong,Ben Cat,31,47
903,BDU - 2009 đường D1,"Thửa đất 2009, tờ bản đồ 7TDH.2, đường D1, KP Đông An, Phường Tân Đông Hiệp, Thị Xã Dĩ An, Tỉnh Bình Dương",SouthEast2,Binh Duong,Di An,6,47
930,BDU - 24A Cách Mạng Tháng Tám,"Thửa đất số 24a, tờ bản đồ C3, đường Cách Mạng Tháng Tám, Khu phố Thạnh Lợi, Phường An Thạnh, Thành phố Thuận An, Tỉnh Bình Dương",SouthEast2,Binh Duong,Thuan An,12,47
925,BDU - 165/3 KP Thạnh Lợi,"Số 165/3- 165C/3- 165E/3 khu phố Thạnh Lợi, , Phường An Thạnh, Thành phố Thuận An, Tỉnh Bình Dương",SouthEast2,Binh Duong,Thuan An,6,47
933,BDU - 132 HL612,"thửa đất số 132 và thửa đất số 181, tờ bản đồ 17, HL612, Ấp 3, Xã Hưng Hòa, Huyện Bàu Bàng, Tỉnh Bình Dương",SouthEast2,Binh Duong,Bau Bang,41,47
945,"BDU - Ô 33,34,35,36 Hai Bà Trưng","Ô 33, Ô 34, Ô 35, Ô 36 - Lô B1; tờ bản đồ số: 1DH2, đường Hai Bà Trưng, khu phố Đông B, phường Đông Hòa, thành phố Dĩ An, tỉnh Bình Dương",SouthEast2,Binh Duong,Di An,6,47
818,BPH - 69 DT757,"Thửa đất số 69, Tờ bản đồ 12, ĐT 757, Thôn Tân Lực, Xã Bù Nho, Huyện Phú Riềng, Tỉnh Bình Phước.",SouthEast2,Binh Phuoc,Phu Rieng,118,43
221,BPH - 269 Nguyen Hue,"269 Nguyễn Huệ, KP, Bình Phú, P.  An Lộc, Thị xã Bình Long, tỉnh Bình Phước",SouthEast2,Binh Phuoc,Binh Long,90,43
307,BPH - Quoc Lo 14,"QL14, Thị trấn Đức Phong, huyện Bù Đăng, Bình Phước",SouthEast2,Binh Phuoc,Bu Dang,138,43
292,BPH - 224 DT741,"224 Đường DT 741 Ấp Chợ, Xã Tân Tiến, Huyện Đồng Phú, Tỉnh Bình Phước",SouthEast2,Binh Phuoc,Dong Phu,70,43
131,BPH - 1108 Phu Rieng Do,"1108 Phú Riềng Đỏ, Khu Phố 2,  P. Tân Đồng, TX Đồng Xoài, Bình Phước",SouthEast2,Binh Phuoc,Dong Xoai,84,43
236,BPH - 108 Quoc Lo 13,"108 Quốc lộ 13, Khu phố Lộc Ninh, Bình Phước",SouthEast2,Binh Phuoc,Loc Ninh,115,43
411,BPH - 168 Duong DT 741,"168 đường  DT741, xã Phú Riềng, H Phú Riềng, Bình Phước",SouthEast2,Binh Phuoc,Phu Rieng,101,43
438,BPH - 361 DT 741,"361 Đường ĐT741, Khu Phố 4, Phường Long Phước, Thị Xã Phước Long",SouthEast2,Binh Phuoc,Phuoc Long,124,43
848,BPH - 19 DT741,"Thửa đất số 19, tờ bản đồ số 41, Đường ĐT741, Thôn Đăk Lim, Xã Đăk Ơ, Huyện Bù Gia Mập, Tỉnh Bình Phước.",SouthEast2,Binh Phuoc,Bu Gia Map,124,43
886,BPH - 23 ấp 07 Lộc Thái,"Số 23, tổ 01, ấp 7, Xã Lộc Thái, Huyện Lộc Ninh, Tỉnh Bình Phước",SouthEast2,Binh Phuoc,Loc Ninh,121,43
919,BPH - KP Ninh Phú,"Thửa đất số 06, tờ bản đồ số TĐ 38 -2019 và Thửa đất số 198, tờ bản đồ số 27, khu phố Ninh Phú, Thị Trấn Lộc Ninh, Huyện Lộc Ninh, Tỉnh Bình Phước",SouthEast2,Binh Phuoc,Loc Ninh,115,43
917,BPH - 43 - 54 đường Sáu Tháng Một,"Thửa đất số 43; 54, tờ bản đồ số 37, Đường Sáu Tháng Một, khu phố 3, Phường Thác Mơ, Thị Xã Phước Long, Tỉnh Bình Phước",SouthEast2,Binh Phuoc,Phuoc Long,130,43
907,BPH - 24 ấp Tân Lợi,"Thửa đất số 24, tờ bản đồ 22, ấp Tân Lợi, Xã Tân Thành, Huyện Bù Đốp, Tỉnh Bình Phước",SouthEast2,Binh Phuoc,Bu Dop,140,43
905,BPH - 21 QL14,"Thửa 21, Tờ bản đồ số 36, Đường Quốc Lộ 14, Khu Phố 4, Phường Tiến Thành, Thành Phố Đồng Xoài, Tỉnh Bình Phước",SouthEast2,Binh Phuoc,Dong Xoai,87,43
282,BTH - 158 Thong Nhat,"158 Thống Nhất, P. Tân Thiện, Thị xã Lagi, Bình Thuận.",Central1,Binh Thuan,Lagi,151,48
322,BTH - 12 Co Giang,"12, đường Cô Giang, phường Phước Hội, thị xã La Gi, tỉnh Bình Thuận",Central1,Binh Thuan,Lagi,151,48
281,BTH - 45 Tran Hung Dao,"45 Trần Hưng Đạo, P. Phú Thuỷ, Tp. Phan Thiết.",Central1,Binh Thuan,Phan Thiet,171,48
121,BTH - 157 Tran Hung Dao,"157 Trần Hưng Đạo, P.Phú Thủy, Tp.Phan Thiết.",Central1,Binh Thuan,Phan Thiet,171,48
449,BTH - 324 Tran Hung Dao,"324 Trần Hưng Đạo, Khu phố 1, Phường Đức Thắng, Thành phố Phan Thiết, Tỉnh Bình Thuận",Central1,Binh Thuan,Phan Thiet,171,48
453,BTH - 373 Trần Hưng Đạo,"373 Trần Hưng Đạo, Phường Bình Hưng, Thành phố Phan Thiết, Tỉnh Bình Thuận",Central1,Binh Thuan,Phan Thiet,171,48
452,BTH - 200 Thủ Khoa Huân,"200 Thủ Khoa Huân, Phường Phú Thủy, Thành phố Phan Thiết, Tỉnh Bình Thuận",Central1,Binh Thuan,Phan Thiet,171,48
218,BTH - 207-209 Thong Nhat,"207 - 209 Thống Nhất, dân phố 14, thị trấn Phan Rí Cửa, huyện Tuy Phong, tỉnh Bình Thuận.",Central1,Binh Thuan,Tuy Phong,240,48
332,BTH - Khu Dan Cu A2,"Khu dân cư A2, Thị Trấn Liên Hương, Huyện Tuy Phong, Tỉnh Bình Thuận.",Central1,Binh Thuan,Tuy Phong,261,48
927,BTH - 264 Nguyễn Huệ,"264 Nguyễn Huệ, khu phố 2, thị trấn Tân Minh, huyện Hàm Tân, tỉnh Bình Thuận, Thị Trấn Tân Minh, Huyện Hàm Tân, Tỉnh Bình Thuận",Central1,Binh Thuan,Ham Tan,113,48
936,BTH - 547 Trần Hưng Đạo,"547 Trần Hưng Đạo, Thị Trấn Thuận Nam, Huyện Hàm Thuận Nam, Tỉnh Bình Thuận",Central1,Binh Thuan,Ham Thuan Nam,159,48
937,BTH - 270 đường 3 tháng 2,"270 Đường 3 Tháng 2, Thị Trấn Đức Tài, Huyện Đức Linh, Tỉnh Bình Thuận",Central1,Binh Thuan,Duc Linh,106,48
386,CMA - 141B Nguyen Tat Thanh,"141B Nguyễn Tất Thành, Khóm 1, Phường 8, TP Cà Mau",Mekong2,Ca Mau,Ca Mau,317,65
268,CMA - 158 Quoc Lo 1A,"158 , đường QL1A ,xã Tắc Vân, thành phố Cà Mau tỉnh Cà Mau",Mekong2,Ca Mau,Ca Mau,311,65
471,CMA - 4B - 5 Hùng Vương,"4B-5 Hùng Vương, Khóm 4, Phường 7, TP.Cà Mau, Cà Mau",Mekong2,Ca Mau,Ca Mau,316,65
369,CMA - 68 Tran Hung Dao,"68 Trần Hưng Đạo, khóm 7, phường 5, tp Cà Mau",Mekong2,Ca Mau,Ca Mau,314,65
249,CMA - 288 Quoc Lo 1A,"Số 288 đường QL1A, Thị trấn Cái Nước, Huyện Cái Nước , Tỉnh Cà Mau",Mekong2,Ca Mau,Cai Nuoc,347,65
375,CMA - Duong Thi Cam Van,"Dương Thị Cẩm Vân, Khóm 4, Thị trấn Đầm Dơi, Huyện Đầm Dơi, Tỉnh Cà Mau.",Mekong2,Ca Mau,Dam Doi,338,65
509,CMA - Nguyễn Tất Thành,"Nguyễn Tất Thành, Khóm 2, Thị Trấn Năm Căn, Huyện Năm Căn, Tỉnh Cà Mau",Mekong2,Ca Mau,Nam Can,367,65
569,CTO - 41A Le Hong Phong,"41A đường Lê Hồng Phong, phường Bình Thuỷ, Quận Bình Thuỷ, TP Cần Thơ",Mekong2,Can Tho,Binh Thuy,186,57
379,CTO - 8/8 Le Hong Phong,"8/8 Lê Hồng Phong, P.Trà Nóc, Q.Bình Thuỷ, TP Cần Thơ",Mekong2,Can Tho,Binh Thuy,191,57
239,CTO - 8A CMT8,"8A Đường CMT8, Phường An Thới, Quận Bình Thủy, TP.Cần Thơ",Mekong2,Can Tho,Binh Thuy,183,57
135,CTO - 196 Duong 3/2,"196 Đường 3 Tháng 2, P. Hưng Lợi, Cần Thơ",Mekong2,Can Tho,Ninh Kieu,180,57
409,CTO - 1A Mau Than,"1A Mậu Thân, Phường Xuân Khánh, Quận Ninh Kiều, Thành phố Cần Thơ",Mekong2,Can Tho,Ninh Kieu,180,57
109,CTO - 305H/10 KV3,"305H/10 KV3, An Khánh, Ninh Kiều, Cần Thơ",Mekong2,Can Tho,Ninh Kieu,182,57
158,CTO - 50B Hung Vuong,"50B Hùng Vương, Phường Thới Bình, Quận Ninh Kiều, Tp. Cần Thơ",Mekong2,Can Tho,Ninh Kieu,181,57
752,CTO -  166 Cách Mạng Tháng 8,"166 Đường Cách Mạng Tháng 8, P. Cái Khế, Q. Ninh Kiều, Tp. Cần Thơ",Mekong2,Can Tho,Ninh Kieu,182,57
211,CTO - 1209 Quoc Lo 91,"1209 Đường Quốc Lộ 91, Phường Châu Văn Liêm, Quận Ô Môn, TP Cần Thơ.",Mekong2,Can Tho,O Mon,201,57
230,CTO - Quoc Lo 91,"Đường QL91, KV Long Thạnh 1, phường Thốt Nốt, quận Thốt Nốt, Thành Phố Cần Thơ",Mekong2,Can Tho,Thot Not,200,57
812,CTO - 222 Nguyễn Hiền,"222 Đường Nguyễn Hiền, Phường An Khánh, Quận Ninh Kiều, Thành phố Cần Thơ",Mekong2,Can Tho,Ninh Kieu,181,57
757,DNA - 90 Võ Chí Công,"90 Võ Chí Công, P. Hoà Xuân, Q. Cẩm Lệ, TP Đà Nẵng",Central2,Da Nang,Cam Le,821,33
345,DNA - 42 Ong Ich Duong,"42 , đường Ông Ích Đường , phường Hòa Thọ Đông, quận Cẩm Lệ, thành phố Đà Nẵng",Central2,Da Nang,Cam Le,854,33
567,DNA - 164 Nui Thanh,"164 Núi Thành, phường Hoà Cường Bắc, Quận Hải Châu, TP Đà Nẵng",Central2,Da Nang,Hai Chau,858,33
473,DNA - 842- 844 Tôn Đức Thắng,"842 - 844 Tôn Đức Thắng, Phường Hòa Khánh Bắc, Quận Liên Chiểu, Thành phố Đà Nẵng",Central2,Da Nang,Lien Chieu,859,33
605,DNA - 199-201 Tôn Đức Thắng,"199-201 Tôn Đức Thắng, phường Hoà Minh, Quận Liên Chiểu, Thành phố Đà Nẵng.",Central2,Da Nang,Lien Chieu,859,33
590,DNA - 93-95 Lê Văn Hiến,"93-95 Lê Văn Hiến, phường Khuê Mỹ, quận Ngũ Hành Sơn, Đà Nẵng",Central2,Da Nang,Ngu Hanh Son,824,33
576,DNA - 824 Ngo Quyen,"824 Ngô Quyền, Phường An Hải Bắc, Quận Sơn Trà, TP Đà Nẵng",Central2,Da Nang,Son Tra,862,33
610,DNA - 36 Nguyễn Đức Trung,"36 Nguyễn Đức Trung, phường Thanh Khê Đông, Quận Thanh Khê, TP Đà Nẵng",Central2,Da Nang,Thanh Khe,860,33
694,DNA - 08 Nguyễn Phan Vinh,"08 Nguyễn Phan Vinh, Phường Thọ Quang, Quận Sơn Trà, TP Đà Nẵng",Central2,Da Nang,Son Tra,867,33
766,DNA - 81 - 83 Nguyễn Văn Linh,"81-83 Nguyễn Văn Linh, Phường Phước Ninh, Q.Hải Châu, TP Đà Nẵng",Central2,Da Nang,Hai Chau,861,33
805,DNA - 16-B4.1 Nguyễn Hữu Thọ,"16-B4.1, tờ bản đồ số 464/98 ĐC-ND, đường Nguyễn Hữu Thọ, phường Khuê Trung, Quận Cẩm Lệ, thành phố Đà Nẵng",Central2,Da Nang,Cam Le,856,33
800,DNA - 1390 Quảng Xương,"Thửa đất số 1390, tờ bản đồ số 7, đường Quảng Xương, thôn Túy Loan, xã Hòa Phong, huyện Hòa Vang, thành phố Đà Nẵng",Central2,Da Nang,Hoa Vang,812,33
912,DNA - 119 Nguyễn Văn Thoại,"119 Nguyễn Văn Thoại, Phường An Hải Đông, Quận Sơn Trà, Thành Phố Đà Nẵng",Central2,Da Nang,Son Tra,861,33
940,DNA - 362-364 Ông Ích Khiêm,"362-364 Ông Ích Khiêm, phường Vĩnh Trung, Quận Thanh Khê, thành phố Đà Nẵng.",Central2,Da Nang,Thanh Khe,933,33
671,DLK - 36 Tỉnh lộ 685,"36 tỉnh lộ 685, xã Ea bar, huyện Buôn Đôn, Tỉnh Đắk Lắk",Highland2,Dak Lak,Buon Don,319,40
103,DLK - 384 Le Duan,"384 Lê Duẩn, P. Eatam, Tp.Ban Mê Thuột",Highland2,Dak Lak,Buon Me Thuot,306,40
308,DLK - 130 Hoang Dieu,"130 Đường Hoàng Diệu, Phường Thành Công, thành phố Buôn Ma Thuộc, Tỉnh Đắk Lắk",Highland2,Dak Lak,Buon Me Thuot,310,40
130,DLK - 16 Le Thanh Tong,"16 Lê Thánh Tông, phường Thắng Lợi, TP. Buôn Ma Thuột,",Highland2,Dak Lak,Buon Me Thuot,310,40
113,DLK - 214 Nguyen Tat Thanh,"214 Nguyễn Tất Thành, P.Tân Lập. Tp. Ban Mê Thuột",Highland2,Dak Lak,Buon Me Thuot,311,40
699,DLK - 112-114 Hùng Vương,"112-114 Hùng Vương, thị trấn Quảng Phú, huyện Cư M'gar, tỉnh Đắk Lắk",Highland2,Dak Lak,Cu M'gar,328,40
748,DLK - 180 Nguyễn Tất Thành,"180 Nguyễn Tất Thành, thị trấn Krông Kmar, huyện Krông Bông, tỉnh Đắk Lắk.",Highland2,Dak Lak,Krong Bong,336,40
417,DLK - 294-296 Giai Phong,"294-296 Giải Phóng, thị trấn Phước An, huyện Krông Pắc, tinh Đắc Lắc",Highland2,Dak Lak,Krong Pac,338,40
813,DLK - 48 Hùng Vương,"48 Hùng Vương, tổ dân phố hòa Bình, thị trấn Ea Súp, huyện Ea súp, tỉnh Đắk Lắk.",Highland2,Dak Lak,Ea Sup,364,40
769,DLK - 2 tỉnh lộ 5,"2 tỉnh lộ 5, xã Cư Ê Bur, thành phố Buôn Ma Thuột, Đắk Lắk",Highland2,Dak Lak,Buon Me Thuot,310,40
368,DLK - 514 Giai Phong,"514 đường Giải Phóng, thị trấn Ea Drăng, huyện Ea Hleo, tỉnh Đắk Lắk",Highland2,Dak Lak,Ea H'leo,383,40
765,DLK - 68 Trần Hưng Đạo,"68 Trần Hưng Đạo, phường An Lạc, thị xã Buôn Hồ, tỉnh Đắk Lắk.",Highland2,Dak Lak,Buon Ho,349,40
846,DLK - 211 Mai Hắc Đế,"211 Mai Hắc Đế, phường Tân Thành, thành phố Buôn Ma Thuột, tỉnh Đắk Lắk",Highland2,Dak Lak,Buon Me Thuot,308,40
872,DLK - 350 Phan Bội Châu,"350 Phan Bội Châu, phường Thống Nhất, thành phố Buôn Ma Thuột, tỉnh Đắk Lắk, Phường Thống Nhất, Thành Phố Buôn Ma Thuột, Tỉnh Đắk Lắk",Highland2,Dak Lak,Buon Me Thuot,310,40
787,DNK - 325 Nguyễn Tất Thành,"325 Nguyễn Tất Thành, thị trấn Ea T'ling, huyện Cư Jút, tỉnh Đắk Nông.",Highland2,Dak Nong,Cu Jut,289,42
384,DNK - 45 Nguyen Tat Thanh,"45 Nguyễn Tất Thành, TT. Kiến Đức, H. Đăk Rlấp, Đăk Nông",Highland2,Dak Nong,Dak R'lap,178,42
397,DNK - 17-19-21 Huynh Thuc Khang,"17, 19, 21 đường Huỳnh Thúc Kháng, thị xã Gia Nghĩa, Tỉnh Đăk Nông.",Highland2,Dak Nong,Gia Nghia,201,42
926,DNK - 57 Nguyễn Tất Thành,"57 Nguyễn Tất Thành, thị trấn Đắk Mâm, huyện Krông Nô, tỉnh Đắk Nông, Thị Trấn Đắk Mâm, Huyện Krông Nô, Tỉnh Đắk Nông",Highland2,Dak Nong,Krong No,295,42
817,DON - 376 Hoàng Bá Bích,"376 Hoàng Bá Bích, Khu phố 5A, Phường Long Bình, Thành phố Biên Hoà, Tỉnh Đồng Nai",SouthEast2,Dong Nai,Bien Hoa,20,49
186,DON- 07 Le Loi,"07 Lê Lợi, Phường Xuân An, Thành phố Long Khánh, Tỉnh Đồng Nai",SouthEast2,Dong Nai,Long Khanh,61,49
290,DON - 194 Tran Phu,"194 Trần Phú, P. Xuân An, Long Khánh, Đồng Nai",SouthEast2,Dong Nai,Long Khanh,62,49
315,DON - 1435 Quoc Lo 1A,"1435 QL 1A, Ấp Trà Cổ, H. Trảng Bom, Đồng Nai",SouthEast2,Dong Nai,Trang Bom,31,49
356,DON - 32A Hung Vuong,"Số 32A đường Hùng Vương, Khu phố 2, Thị trấn Trảng Bom, huyện Trảng Bom, tỉnh Đồng Nai",SouthEast2,Dong Nai,Trang Bom,35,49
392,DON - 63 Quoc Lo 1A,"63 QL1A ấp Hòa Bình, Xã Đông Hòa, Huyện Trảng Bom, tỉnh Đồng Nai",SouthEast2,Dong Nai,Trang Bom,41,49
296,DON - 49F Duong 30/4,"49F đường 30/4, thị trấn Trảng Bom, huyện Trảng Bom, tỉnh Đồng Nai",SouthEast2,Dong Nai,Trang Bom,35,49
538,DON - 2227 Quốc Lộ 1A,"2227 đường Quốc Lộ 1A, Xã Hố Nai 3, Huyện Trảng Bom, Tỉnh Đồng Nai.",SouthEast2,Dong Nai,Trang Bom,32,49
563,DON - 2698 Quốc Lộ 1A,"2698 Quốc Lộ 1A, xã Hố Nai 3, huyện Trảng Bom, tỉnh Đồng Nai",SouthEast2,Dong Nai,Trang Bom,32,49
394,DON - 240 Hung Vuong,"240 đường Hùng Vương, khu phố 5, thị trấn Gia Ray, huyện Xuân Lộc, tỉnh Đồng Nai.",SouthEast2,Dong Nai,Xuan Loc,83,49
681,DON - 2089 Quốc Lộ 1A,"2089 Quốc Lộ 1A, ấp 5, xã Xuân Tâm, huyện Xuân Lộc, tỉnh Đồng Nai",SouthEast2,Dong Nai,Xuan Loc,88,49
789,DON - 372 Bắc Sơn – Long Thành,"372 Bắc Sơn – Long Thành, thôn Đông Bình, Ấp Bùi Chu, Xã Bắc Sơn, Huyện Trảng Bom, tỉnh Đồng Nai.",SouthEast2,Dong Nai,Trang Bom,30,49
618,DON - Go! Đồng Nai,"Big C Đồng Nai, 833 Xa lộ Hà Nội, Long Bình Tân, Thành phố Biên Hòa, Đồng Nai",SouthEast2,Dong Nai,Bien Hoa,14,49
95,DON - 337 Duong 30 thang 4,"337 Đường 30 tháng 4, P. Quyết Thắng, TP. Biên Hòa, Đồng Nai",SouthEast2,Dong Nai,Bien Hoa,15,49
208,DON - G1 Dong Khoi,"G1, đường Đồng Khởi, phường Tân Hiệp, thành phố Biên Hòa, tỉnh Đồng Nai.",SouthEast2,Dong Nai,Bien Hoa,20,49
395,DON - 633 Pham Van Thuan,"633 đường Phạm Văn Thuận, xã Tam Hiệp, Tp Biên Hòa, Tỉnh Đồng Nai",SouthEast2,Dong Nai,Bien Hoa,20,49
470,DON - Trần Văn Xã,"2/11 Trần Văn Xã, Khu Phố 5, Phường Trảng Dài, Thành phố Biên Hòa, Tỉnh Đồng Nai",SouthEast2,Dong Nai,Bien Hoa,21,49
271,DON - 121A-123 CMT8,"121A - 123 CMT8, TP. Biên Hoà, Tỉnh Đồng Nai.",SouthEast2,Dong Nai,Bien Hoa,14,49
145,DON - 34 Khu Pho 4,"34 Khu Phố 4, Phường Long Bình, Biên Hòa, Đồng Nai",SouthEast2,Dong Nai,Bien Hoa,25,49
331,DON - 845 Bui Van Hoa,"845 đường Bùi Văn Hòa khu phố 7, phường Long Bình, TP. Biên Hòa, Đồng Nai",SouthEast2,Dong Nai,Bien Hoa,20,49
92,DON - 178 Pham Van Thuan,"178 Phạm Văn Thuận, Thống Nhất, TP. Biên Hòa, Đồng Nai",SouthEast2,Dong Nai,Bien Hoa,16,49
329,DON - 296-297 Quoc Lo 51,"296 - 297 Quốc Lộ 51, KP Long Khánh 3, Phường Tam Phước, Thành phố Biên Hòa, Tỉnh Đồng Nai",SouthEast2,Dong Nai,Bien Hoa,26,49
490,DON - 58 Đồng Khởi,"58 Đồng Khởi, Khu phố 11, Phường Tân Phong, Thành phố Biên Hòa, Tỉnh Đồng Nai.",SouthEast2,Dong Nai,Bien Hoa,20,49
503,DON -  F7/1 - F7/2 Quốc Lộ 51,"F7/1 - F7/2 Quốc Lộ 51, Khu Phố 1, Phường Long Bình Tân, Thành phố Biên Hòa, Tỉnh Đồng Nai",SouthEast2,Dong Nai,Bien Hoa,17,49
535,DON - 537 Cách Mạng Tháng Tám,"537 Cách Mạng Tháng Tám, Phường Hòa Bình, Thành phố Biên Hòa, Đồng Nai",SouthEast2,Dong Nai,Bien Hoa,13,49
600,DON - Thua Dat so 104,"Thửa đất số 104, tờ bản đồ 97, Quốc lộ 51, Khu phố Tân Mai 2, Phường Phước Tân, Thành phố Biên Hòa, Tỉnh Đồng Nai",SouthEast2,Dong Nai,Bien Hoa,22,49
714,DON - 20/83 Lê Đại Hành,"20/83 Lê Đại Hành, khu phố 12, phường Hố Nai, thành phố Biên Hoà, tỉnh Đồng Nai",SouthEast2,Dong Nai,Bien Hoa,23,49
740,DON - 93 Vũ Hồng Phô,"93 Vũ Hồng Phô, Khu phố 2, Phường Bình Đa, Thành phố Biên Hòa, Tỉnh Đồng Nai",SouthEast2,Dong Nai,Bien Hoa,18,49
647,DON - 530 Xa Lộ Hà Nội,"530 Xa Lộ Hà Nội, Khu phố 4, Phường Tân Hiệp, Thành phố Biên Hòa, Tỉnh Đồng Nai",SouthEast2,Dong Nai,Bien Hoa,22,49
320,DON - 22 Ap 114,"Số 22, ấp 114, thị trấn Định Quán, huyện Định Quán, tỉnh Đồng Nai",SouthEast2,Dong Nai,Dinh Quan,95,49
592,DON - So 3 Pho 1,"Số 3 Phố 1, Ấp 3, Xã Phú Vinh, Huyện Định Quán, Tỉnh Đồng Nai",SouthEast2,Dong Nai,Dinh Quan,101,49
649,DON - 4/4 Quốc lộ 20,"4/4 Quốc lộ 20, Ấp Chợ, Xã Phú Túc, Huyện Định Quán, Tỉnh Đồng Nai",SouthEast2,Dong Nai,Dinh Quan,71,49
736,DON - 36/3 DT763,"36/3 DT763, ấp 1, xã Suối Nho, huyện Định Quán, tỉnh Đồng Nai",SouthEast2,Dong Nai,Dinh Quan,75,49
149,DON - 1-1/1 Hai Ba Trung,"1-1/1 đường Hai Bà Trưng, Khu Phước Hải, Thị Trấn Long Thành, Huyện Long Thành, Tỉnh Đồng Nai,",SouthEast2,Dong Nai,Long Thanh,35,49
191,DON - 129 Phung Hung,"Cửa hàng 129 Phùng Hưng, khu 4, ấp 8, huyện Long Thành, Đồng Nai",SouthEast2,Dong Nai,Long Thanh,61,49
346,DON - 1912 Quoc Lo 51,"1912 Quốc lộ 51, tổ 1, Ấp 1C, Phước Thái, Long Thành, Đồng Nai",SouthEast2,Dong Nai,Long Thanh,52,49
401,DON - 1324 Quoc Lo 51,"1324 Quốc lộ 51, ấp Phước Hòa, xã Long Phước, huyện Long Thành, tỉnh Đồng Nai.",SouthEast2,Dong Nai,Long Thanh,48,49
690,DON - 93 Bưng Môn,"93 Bưng Môn, Tổ 6, Ấp 4, Xã Long An, Huyện Long Thành, Tỉnh Đồng Nai",SouthEast2,Dong Nai,Long Thanh,41,49
289,DON - 2551 Ly Thai To,"2551 đường Lý Thái Tổ, Ấp Phước Lý, xã Đại Phước, huyện Nhơn Trạch, Đồng Nai",SouthEast2,Dong Nai,Nhon Trach,30,49
507,DON - 450 Lý Thái Tổ,"450 Lý Thái Tổ, Ấp Bến Cam, Xã Phước Thiền, Huyện Nhơn Trạch, Tỉnh Đồng Nai",SouthEast2,Dong Nai,Nhon Trach,38,49
723,DON - 114 Lý Thái Tổ,"114 Lý Thái Tổ, Ấp Trầu, Phước Thiền, Nhơn Trạch, Đồng Nai",SouthEast2,Dong Nai,Nhon Trach,40,49
591,DON - 665 Quốc lộ 20,"665 Quốc lộ 20, tổ 20, Khu phố Trần Cao Vân, Thị trấn Dầu Giây, Huyện Thống Nhất, Tỉnh Đồng Nai",SouthEast2,Dong Nai,Thong Nhat,59,49
242,DON - DT 768,"DT768, ấp 1, xã Thạnh Phú, huyện Vĩnh Cửu, tỉnh Đồng Nai.",SouthEast2,Dong Nai,Vinh Cuu,25,49
745,DON - 344F TL768,"344F, Tỉnh lộ 768, ấp Bình Phước, xã Tân Bình, huyện Vĩnh Cửu, tỉnh Đồng Nai",SouthEast2,Dong Nai,Vinh Cuu,21,49
794,DON - 771 Hùng Vương,"771 Hùng Vương, tổ 10, ấp 1, xã Long Thọ, huyện Nhơn Trạch, tỉnh Đồng Nai.",SouthEast2,Dong Nai,Nhon Trach,46,49
816,DON - 292 Hùng Vương,"292 Hùng Vương, Khu phố Phước Kiểng, Thị trấn Hiệp Phước, Huyện Nhơn Trạch, tỉnh Đồng Nai",SouthEast2,Dong Nai,Nhon Trach,42,49
788,DON - 82A Nguyễn Phúc Chu,"82A Nguyễn Phúc Chu, Phường Trảng Dài, Thành phố Biên Hòa, Tỉnh Đồng Nai.",SouthEast2,Dong Nai,Bien Hoa,21,49
801,DON - 19/68 đường 643,"19/68 đường 643 – Xa lộ Hà Nội, Khu phố 1, Phường Long Bình, Thành phố Biên Hòa, Tỉnh Đồng Nai.",SouthEast2,Dong Nai,Bien Hoa,20,49
828,DON - 02 Trần Văn Xã,"02 Trần Văn Xã, Khu phố 3A, Phường Trảng Dài, Thành phố Biên Hoà, Tỉnh Đồng Nai",SouthEast2,Dong Nai,Bien Hoa,21,49
891,DON - 55/7 Phạm Văn Đồng,"55/7 Phạm Văn Đồng, Xã Phước Thiền, Huyện Nhơn Trạch, Tỉnh Đồng Nai",SouthEast2,Dong Nai,Nhon Trach,39,49
880,DON - 28 Lý Văn Sâm,"28 Lý Văn Sâm, Phường Tam Hiệp, Thành Phố Biên Hòa, Tỉnh Đồng Nai",SouthEast2,Dong Nai,Bien Hoa,20,49
878,DON - 144 Đinh Quang Ân,"144 Đinh Quang Ân, Ấp Hương Phước, Phường Phước Tân, Thành Phố Biên Hòa, Tỉnh Đồng Nai",SouthEast2,Dong Nai,Bien Hoa,21,49
851,DON - 40 DT 764,"40 DT764, Ấp 9, Xã Sông Ray, Huyện Cẩm Mỹ, Tỉnh Đồng Nai",SouthEast2,Dong Nai,Cam My,82,49
929,DON - 08 Tổ 2,"08, Tổ 2, Khu phố 2, Phường Long Bình Tân, Thành Phố Biên Hòa, Tỉnh Đồng Nai",SouthEast2,Dong Nai,Bien Hoa,17,49
924,DON - 101 Nguyễn Tất Thành,"101 Nguyễn Tất Thành, Tổ 1, Khu phố 5, Thị Trấn Vĩnh An, Huyện Vĩnh Cửu, Tỉnh Đồng Nai",SouthEast2,Dong Nai,Vinh Cuu,48,49
922,DON - 265 TL767,"Thửa đất số 265, tờ bản đồ số 19, tỉnh lộ 767, thôn Tây Lạc, Ấp An Chu, Xã Bắc Sơn, Huyện Trảng Bom, Tỉnh Đồng Nai",SouthEast2,Dong Nai,Trang Bom,31,49
932,DON - 53 Nguyễn Khắc Hiếu,"53 Nguyễn Khắc Hiếu, Khu phố Long Đức 1, Phường Tam Phước, Thành Phố Biên Hòa, Tỉnh Đồng Nai",SouthEast2,Dong Nai,Bien Hoa,31,49
305,ĐTH - 76 Pham Huu Lau,"Số 76, đường Phạm Hữu Lầu, phường 4, TP Cao Lãnh, Tỉnh Đồng Tháp",Mekong2,Dong Thap,Cao Lanh,165,53
701,ĐTH - 1438 QL30,"1438 đường QL30, Khóm 3, Phường 11, Tp.Cao Lãnh, Tỉnh Đồng Tháp.",Mekong2,Dong Thap,Cao Lanh,175,53
678,ĐTH - 96-98 QL80,"96-98 QL80, khóm Phú Mỹ, thị trấn Cái Tàu Hạ, huyện Châu Thành, tỉnh Đồng Tháp.",Mekong2,Dong Thap,Chau Thanh,146,53
640,ĐTH - QL80 Khóm 1,"QL80 Khóm 1, TT. Lai Vung, H. Lai Vung, Đồng Tháp",Mekong2,Dong Thap,Lai Vung,168,53
669,ĐTH - 6A/TK Quốc Lộ 54,"6A/TK Quốc Lộ 54, ấp Tân Khánh, xã Tân Thành, huyện Lai Vung, tỉnh Đồng Tháp",Mekong2,Dong Thap,Lai Vung,177,53
286,ĐTH - 308 Duong 3/2,"308 Đường 3/2, Khóm Bình Thạnh 1, Thị Trấn Lấp Vò, Huyện Lấp Vò, Tỉnh Đồng Tháp.",Mekong2,Dong Thap,Lap Vo,20,53
170,ĐTH - 281-283 Nguyen Sinh Sac,"281-283 đường Nguyễn Sinh Sắc, P2. Thành phố Sa Đéc, Tỉnh Đồng Tháp",Mekong2,Dong Thap,Sa Dec,155,53
641,ĐTH - K28 TL848,"K28 đường TL 848, Khóm Tân Hòa , Phường An Hòa , Tp. Sa Đéc, Tỉnh Đồng Tháp",Mekong2,Dong Thap,Sa Dec,159,53
614,ĐTH - Trần Hưng Đạo,"Trần Hưng Đạo, Khóm 2, Thị Trấn Tràm Chim, Huyện Tam Nông, Tỉnh Đồng Tháp",Mekong2,Dong Thap,Tam Nong,162,53
285,ĐTH - 51 Nguyen Hue,"51 Nguyễn Huệ, Thị Trấn Sa Rài, huyện Tân Hồng, tỉnh Đồng Tháp",Mekong2,Dong Thap,Tan Hong,187,53
742,ĐTH - QL30,"QL 30, Ấp Bình Chánh, Xã Bình Thành, Huyện Thanh Bình, Tỉnh Đồng Tháp.",Mekong2,Dong Thap,Thanh Binh,179,53
306,ĐTH - 131 Hung Vuong,"131 Hùng Vương, Thị Trấn Mỹ An, Tỉnh Đồng Tháp",Mekong2,Dong Thap,Thap Muoi,134,53
738,ĐTH - Gò Tháp,"Gò Tháp, khóm 3, thị trấn Mỹ An, huyện Tháp Mười, tỉnh Đồng Tháp",Mekong2,Dong Thap,Thap Muoi,133,53
941,ĐTH - 158 - 160 Nguyễn Huệ,"158 - 160 đường Nguyễn Huệ, Khóm 2, Phường 2, Thành Phố Cao Lãnh, Tỉnh Đồng Tháp",Mekong2,Dong Thap,Cao Lanh,166,53
408,GLA - 06 Le Loi,"06 Lê Lợi, P. Hội Thương, Tp. Pleiku, Gia Lai",Highland3,Gia Lai,Pleiku,486,38
728,GLA - 113 Hai Bà Trưng,"113A, 113B,113C Hai Bà Trưng, phường Diên Hồng, thành phố Pleiku, tỉnh Gia Lai",Highland3,Gia Lai,Pleiku,487,38
358,GLA - 18-20 Nguyen Tat Thanh,"18-20 Nguyễn Tất Thành, phường Hoa Lư, thành phố Pleiku, tỉnh Gia Lai",Highland3,Gia Lai,Pleiku,486,38
444,GLA - 347 Quang Trung,"347 Quang Trung, Tổ dân phố 10, Phường An Phú, Thị xã An Khê, Tỉnh Gia Lai.",Highland3,Gia Lai,An Khe,507,38
357,GLA - 807D Hung Vuong,"807D Đường Hùng Vương, Tổ dân phố 7, Thị Trấn Chư Sê, Huyện Chư Sê, Tỉnh Gia Lai",Highland3,Gia Lai,Chu Se,449,38
655,GLA - 841-843-845 Phạm Văn Đồng,"841-843-845 Phạm Văn Đồng, phường Yên Thế, Thành Phố Pleiku, Tỉnh Gia Lai",Highland3,Gia Lai,Pleiku,492,38
264,HNI - 933 La Thanh,"933 Đê La Thành, P. Ngọc Khánh, Quận Ba Đình, TP. Hà Nội",North,Ha Noi,Ba Dinh,1628,17
747,HNI - GO! Thăng Long,"Go! Thăng Long, 222 đường Trần Duy Hưng, Trung Hòa, Cầu Giấy, Hà Nội",North,Ha Noi,Cau Giay,1625,17
712,HNI - 22-24 Nguyễn Thái Học,"22-24 đường Nguyễn Thái Học, thị trấn Phùng, huyện Đan Phượng, thành phố Hà Nội",North,Ha Noi,Dan Phuong,1646,17
746,HNI - 16B-4 Nguyễn Văn Lộc,"16B-4 phố Nguyễn Văn Lộc, phường Mộ Lao, quận Hà Đông, thành phố Hà Nội",North,Ha Noi,Ha Dong,1625,17
617,HNI - 205 Nguyễn Đức Thuận,"205 đường Nguyễn Đức Thuận, thị trấn Trâu Quỳ, huyện Gia Lâm, thành phố Hà Nội",North,Ha Noi,Gia Lam,1629,17
455,HNI - Aeon Mall Hà Đông,"T313 Tầng 3 AEONMALL Hà Đông, Khu đô thị mới Dương Nội, Phường Dương Nội, Quận Hà Đông, Thành phố Hà Nội",North,Ha Noi,Ha Dong,1630,17
622,HNI - BT8-VT11,"BT8-VT11, Khu nhà ở Xa La, phường Phúc La, quận Hà Đông, thành phố Hà Nội.",North,Ha Noi,Ha Dong,1624,17
265,HNI - 2 Trieu Quoc Dat,"số 2 phố Triệu Quốc Đạt, phường Trần Hưng Đạo, quận Hoàn Kiếm, Hà Nội",North,Ha Noi,Hoan Kiem,1624,17
636,HNI - 340 - 342 Phan Trọng Tuệ,"340-342 đường Phan Trọng Tuệ, xã Thanh Liệt, huyện Thanh Trì, thành phố Hà Nội.",North,Ha Noi,Thanh Tri,1622,17
894,HNI - Go Lê Trọng Tấn,"BS 7+8+8 tầng hầng 1 TTTM Go! Lê Trọng Tấn, Phường Khương Mai, Quận Thanh Xuân, Thành Phố Hà Nội",North,Ha Noi,Thanh Xuan,1622,17
882,HNI - 147K Đội Cấn,"số 147K đường Đội Cấn, Phường Ngọc Hà, Quận Ba Đình, Thành Phố Hà Nội",North,Ha Noi,Ba Dinh,1626,17
410,HTI - 53-55 Tran Phu,"53-55, đường Trần Phú , phường Trần Phú, thành phố Hà Tĩnh, tỉnh Hà Tĩnh",North,Ha Tinh,Ha Tinh,1273,29
827,HDU - 413 Trần Hưng Đạo,"413 đường Trần Hưng Đạo, ngã tư Phụ Sơn, phường An Lưu, thị xã Kinh Môn, tỉnh Hải Dương",North,Hai Duong,Kinh Mon,1667,18
506,HAP - 2 - 4 Cầu Đất,"2 - 4 Cầu Đất, phường Cầu Đất, Ngô Quyền, Thành phố Hải Phòng",North,Hai Phong,Ngo Quyen,1686,20
689,HAP-GO! Hải Phòng,"GO! Hải Phòng, Ngã 5 Sân Bay, 20 Khu đô thị mới, Đông Khê, quận Ngô Quyền, TP Hải Phòng",North,Hai Phong,Ngo Quyen,1690,20
753,HAP - 70 Trần Hưng Đạo,"70 đường Trần Hưng Đạo, thị trấn Núi Đèo, huyện Thủy Nguyên, thành phố Hải Phòng",North,Hai Phong,Thuy Nguyen,1667,20
853,HAP - 22 Tổ 4 An Dương,"Số 22 Tổ 4, Thị Trấn An Dương, Huyện An Dương, Thành Phố Hải Phòng",North,Hai Phong,An Duong,1658,20
692,HAG - J52 - J53,"J52 - J53 khu TTTM Thị Trấn Ngã Sáu, đường Hùng Vương, Huyện Châu Thành, Tỉnh Hậu Giang",Mekong2,Hau Giang,Chau Thanh,194,61
442,HAG - 361 Tran hung Dao,"361 Trần Hưng Đạo, Phường 1, Thành phố Vị Thanh, Tỉnh Hậu Giang",Mekong2,Hau Giang,Vi Thanh,222,61
809,HCM - Coffee SuperCentre Nguyễn Trãi,"Tầng 5 + Tầng 6, Số 09 -11 -13 -7/17 Nguyễn Trãi, Phường Bến Thành, Quận 1, Thành Phố Hồ Chí Minh",HCM,Ho Chi Minh,Quan 1,20,50
731,HCM - 451/2A Đào Cử,"451/2A Đào Cử, Khu phố Miễu Nhì, Thị trấn Cần Thạnh, Huyện Cần Giờ, Thành phố Hồ Chí Minh",HCM,Ho Chi Minh,Can Gio,84,50
585,HCM - 425 Tỉnh Lộ 15,"425 Tỉnh Lộ 15, tổ 4, ấp 8, xã Tân Thạnh Đông , huyện Củ Chi, TP HCM",HCM,Ho Chi Minh,Cu Chi,26,50
365,HCM - 266A Tinh Lo 15,"266A Tỉnh Lộ 15, tổ 5, ấp 11, xã Tân Thạnh Đông, Củ Chi, TPHCM",HCM,Ho Chi Minh,Cu Chi,25,50
431,HCM - 47 Tinh Lo 8,"47 Tỉnh lộ 8, Thị trấn Củ Chi, Huyện Củ Chi, Thành phố Hồ Chí Minh",HCM,Ho Chi Minh,Cu Chi,36,50
611,HCM - 60 Quốc Lộ 22,"60 Quốc Lộ 22, ấp Bàu Sim, xã Tân Thông Hội, huyện Củ Chi, TP HCM",HCM,Ho Chi Minh,Cu Chi,31,50
321,HCM - 158 Quoc Lo 22,"158 Quốc Lộ 22, Ấp Đình, Xã Tân Phú Trung, Củ Chi, TPHCM",HCM,Ho Chi Minh,Cu Chi,28,50
102,HCM - 864 Quoc Lo 22,"864 Quốc Lộ 22, Khu Phố 2, Củ Chi, HCM",HCM,Ho Chi Minh,Cu Chi,36,50
722,HCM - 73 Tỉnh Lộ 8,"73 Tỉnh Lộ 8, Xã Tân Thạnh Tây, Huyện Củ Chi, Thành phố Hồ Chí Minh",HCM,Ho Chi Minh,Cu Chi,28,50
755,HCM - 978 Tỉnh Lộ 15,"978 Tỉnh Lộ 15, ấp Chợ Cũ, xã An Nhơn Tây, huyện Củ Chi, Thành phố Hồ Chí Minh",HCM,Ho Chi Minh,Cu Chi,42,50
161,HCM - 44/1D Pham Van Chieu,"44/1D Phạm Văn Chiêu Gò Vấp, HCM",HCM,Ho Chi Minh,Go Vap,15,50
84,HCM - 329 Phan Huy Ich,"329 Phan Huy Ích, Phường 14, Quận Gò Vấp",HCM,Ho Chi Minh,Go Vap,20,50
389,HCM - 668 Le Duc Tho,"668 Lê Đức Thọ, P.15, Q.Gò Vấp, thành phố HCM",HCM,Ho Chi Minh,Go Vap,15,50
446,HCM - 141 Nguyen Hong,"141 Nguyên Hồng, Phường 01, Quận Gò Vấp, Thành phố Hồ Chí Minh",HCM,Ho Chi Minh,Go Vap,14,50
89,HCM - 310 Nguyen Oanh,"310 Nguyễn Oanh, P. 17, Gò Vấp",HCM,Ho Chi Minh,Go Vap,15,50
318,HCM - 3/1A Nguyen Van Luong,"3/1A Nguyễn Văn Lượng, phường 16 quận Gò vấp, tp Hcm",HCM,Ho Chi Minh,Go Vap,16,50
492,HCM - 37 Trần Phú Cương,"37 Trần Phú Cương, Phường 5, Quận Gò Vấp, Thành phố Hồ Chí Minh",HCM,Ho Chi Minh,Go Vap,15,50
428,HCM - 204-206 Le Van Tho,"204-206 Lê Văn Thọ, Phường 11, Quận Gò Vấp",HCM,Ho Chi Minh,Go Vap,17,50
727,HCM - 783 Phan Văn Trị,"783 Phan Văn Trị, Phường 7, Quận Gò Vấp, Thành phố Hồ Chí Minh",HCM,Ho Chi Minh,Go Vap,16,50
200,HCM - 149 Phan Van Hon,"149 Phan Văn Hớn, ấp 7, Xã Xuân Thới Thượng, Huyện Hóc Môn, TP HCM",HCM,Ho Chi Minh,Hoc Mon,25,50
309,HCM - 39 Phan Van Hon,"39 Phan Văn Hớn, Ấp 4, Xuân Thới Thượng, Hóc Môn, TPHCM",HCM,Ho Chi Minh,Hoc Mon,26,50
383,HCM -  66/7 Quoc Lo 22,"66/7 QL22, Ấp Dân Thắng 1, xã Tân Thới Nhì, Hóc Môn, Tp Hcm",HCM,Ho Chi Minh,Hoc Mon,23,50
122,HCM - 6/11A Quang Trung,"6/11A Quang Trung, huyện Hóc Môn, Tp. Hồ Chí Minh",HCM,Ho Chi Minh,Hoc Mon,20,50
468,HCM - 88/4 Nguyễn Ảnh Thủ,"88/4 Nguyễn Ảnh Thủ, Ấp Tây Lân, Xã Bà Điểm, Huyện Hóc Môn, Thành phố Hồ Chí Minh",HCM,Ho Chi Minh,Hoc Mon,21,50
571,HCM - 91/11A Le Loi,"91/11A Lê Lợi, ấp Dân Thắng 2, xã Tân Thới Nhì, huyện Hóc Môn, thành phố Hồ Chí Minh",HCM,Ho Chi Minh,Hoc Mon,22,50
347,HCM - 12/12 Nguyen Binh,"12/12 Nguyễn Bình,  Nhà Bè,  Tp Hcm",HCM,Ho Chi Minh,Nha Be,40,50
209,HCM - 902 Le Van Luong,"902 Lê Văn Lương, xã Phước Kiểng, Huyện Nhà Bè, TP.HCM",HCM,Ho Chi Minh,Nha Be,26,50
501,HCM - 786 Nguyễn Văn Tạo,"786 Nguyễn Văn Tạo, Ấp 1, Xã Hiệp Phước, Huyện Nhà Bè, Thành phố Hồ Chí Minh.",HCM,Ho Chi Minh,Nha Be,36,50
662,HCM - 1842A Huỳnh Tấn Phát,"1842A Huỳnh Tấn Phát, Khu phố 6, Thị trấn Nhà Bè, Huyện Nhà Bè, Thành phố Hồ Chí Minh",HCM,Ho Chi Minh,Nha Be,34,50
732,HCM - 546 Nguyễn Văn Tạo,"546 Nguyễn Văn Tạo, Ấp 1, xã Long Thới, huyện Nhà Bè, Thành phố Hồ Chí Minh",HCM,Ho Chi Minh,Nha Be,33,50
181,HCM - 191 Hoang Van Thu,"191 Hoàng Văn Thụ, P.8, Q. Phú Nhuận, HCM",HCM,Ho Chi Minh,Phu Nhuan,18,50
688,HCM - 172 Đặng Văn Ngữ,"172 Đặng Văn Ngữ, Phường 14, Quận Phú Nhuận, Thành Phố Hồ Chí Minh",HCM,Ho Chi Minh,Phu Nhuan,19,50
700,HCM - 55B Phan Đăng Lưu,"55B Phan Đăng Lưu, Phường 07, Quận Phú Nhuận, Thành phố Hồ Chí Minh",HCM,Ho Chi Minh,Phu Nhuan,16,50
459,HCM - 223B Cống Quỳnh,"223B Cống Quỳnh, Nguyễn Cư Trinh, Quận 1, HCM",HCM,Ho Chi Minh,Quan 1,20,50
598,HCM - 66 Nguyễn Du,"66 Nguyễn Du, Phường Bến Nghé, Quận 1, Thành phố Hồ Chí Minh",HCM,Ho Chi Minh,Quan 1,18,50
613,HCM - 93 Nguyễn Bỉnh Khiêm,"93 Nguyễn Bỉnh Khiêm, Phường Đa Kao, Quận 1, Thành phố Hồ Chí Minh",HCM,Ho Chi Minh,Quan 1,16,50
53,HCM - 101 Tran Quang Khai,"101 Trần Quang Khải, Phường Tân Định, quận 1",HCM,Ho Chi Minh,Quan 1,17,50
695,HCM -  582 Kha Vạn Cân,"582 Đường Kha Vạn Cân, Phường  Linh Đông, Thành phố Thủ Đức , Thành Phố Hồ Chí Minh",HCM,Ho Chi Minh,Thu Duc,13,50
164,HCM - 165 Tran Nao,"165 Trần Não, Khu Phố 3, Phường  An Khánh, Thành phố Thủ Đức, Thành phố Hồ Chí Minh",HCM,Ho Chi Minh,Thu Duc,18,50
96,HCM - 14C Nguyen Thi Dinh,"14C Nguyễn Thị Định, P.An Phú, TP. Thủ Đức, TP. HCM",HCM,Ho Chi Minh,Thu Duc,18,50
119,HCM - 595 Nguyen Duy Trinh,"595 Nguyễn Duy Trinh, P.Bình Trung Đông, Thành phố Thủ Đức, TP. HCM",HCM,Ho Chi Minh,Thu Duc,19,50
86,HCM - 38 Tran Nao,"38 Trần Não, Phường An Khánh, Thành phố Thủ Đức, Thành phố Hồ Chí Minh",HCM,Ho Chi Minh,Thu Duc,18,50
300,HCM - 121A Nguyen Duy Trinh,"121A Nguyễn Duy Trinh, KP1, P. Bình Trưng Tây, Thành phố Thủ Đức, Thành phố Hồ Chí Minh",HCM,Ho Chi Minh,Thu Duc,19,50
443,HCM - 77 Quoc Huong,"Số 77, Đường Quốc Hương, Phường Thảo Điền, Thành phố Thủ Đức, Thành phố Hồ Chí Minh",HCM,Ho Chi Minh,Thu Duc,20,50
441,HCM - Lo C CC Tan My,"tầng 1+ 2, Lô C Chung cư Tân Mỹ, đường Tân Mỹ, Phường Tân Phú, Quận 7, Thành phố Hồ Chí Minh.",HCM,Ho Chi Minh,Quan 7,24,50
163,HCM - 28-34 Nguyen Thi Thap,"28-30-32-34 Nguyễn Thị Thập, Phường Bình Thuận, Quận 7, Thành phố. Hồ Chí Minh",HCM,Ho Chi Minh,Quan 7,30,50
155,HCM - Grand View Phu My Hung,"Grand View, Phú Mỹ Hưng, Nguyễn Đức Cảnh, P. Tân Phong, Q.7, TP.HCM",HCM,Ho Chi Minh,Quan 7,33,50
173,HCM - 130 Pham Huu Lau,"130 Đường Phạm Hữu Lầu, P. Phú Mỹ, Quận 7, TP. HCM",HCM,Ho Chi Minh,Quan 7,34,50
424,HCM - 175 Lam Van Ben,"175 Lâm Văn Bền, Khu phố 6, Phường Bình Thuận, Quận 7, Thành phố Hồ Chí Minh",HCM,Ho Chi Minh,Quan 7,24,50
323,HCM - 304-306 Huynh Tan Phat,"304-306 Huỳnh Tấn Phát, Phường Tân Thuận Tây, Quận 7, TPHCM",HCM,Ho Chi Minh,Quan 7,23,50
324,HCM - 326 Le Van Luong,"326 Lê Văn Lương, Phường Tân Hưng, Quận 7, TPHCM.",HCM,Ho Chi Minh,Quan 7,24,50
136,HCM - 1649 Huynh Tan Phat,"1649 Huỳnh Tấn Phát, P. Phú Mỹ, Q.7, HCM",HCM,Ho Chi Minh,Quan 7,34,50
705,HCM - 964 Huỳnh Tấn Phát,"964 Huỳnh Tấn Phát, Phường Tân Phú, Quận 7, Thành phố Hồ Chí Minh.",HCM,Ho Chi Minh,Quan 7,32,50
169,HCM - 178 Do Xuan Hop,"178 Đỗ Xuân Hợp, Phước Long A, Thành phố Thủ Đức, Thành phố Hồ Chí Minh",HCM,Ho Chi Minh,Thu Duc,15,50
132,HCM - 172 Le Van Viet,"172 Lê Văn Việt, P. Tăng Nhơn Phú, Thành phố Thủ Đức, Thành phố Hồ Chí Minh",HCM,Ho Chi Minh,Thu Duc,13,50
76,HCM - 345B Do Xuan Hop,"345B Đỗ Xuân Hợp, Khu phố 5, Phước Long B, Thành phố Thủ Đức, Thành phố Hồ Chí Minh",HCM,Ho Chi Minh,Thu Duc,11,50
371,HCM - 657 Nguyen Xien,"657 Nguyễn Xiển, Phường Long Thạnh Mỹ, Thành phố Thủ Đức, Thành phố Hồ Chí Minh",HCM,Ho Chi Minh,Thu Duc,16,50
247,HCM - 655 Le Van Viet,"655 Lê Văn Việt, Khu Phố 6, P.Tân Phú, Q.9, TPHCM.",HCM,Ho Chi Minh,Thu Duc,14,50
234,HCM - 1187 Nguyen Duy Trinh,"1187 Nguyễn Duy Trinh, P. Long Trường, Thành phố Thủ Đức, Thành phố Hồ Chí Minh",HCM,Ho Chi Minh,Thu Duc,19,50
560,HCM - 1463-1465 Nguyễn Duy Trinh,"1463 - 1465 Nguyễn Duy Trinh, Khu Phố Phước Lai, Phường Trường Thạnh, Thành phố Thủ Đức, Thành phố Hồ Chí Minh",HCM,Ho Chi Minh,Thu Duc,19,50
720,HCM - 191 Ni Sư Huỳnh Liên,"191 Ni Sư Huỳnh Liên, Phường 10, Quận Tân Bình, Thành phố Hồ Chí Minh",HCM,Ho Chi Minh,Tan Binh,22,50
225,HCM - 89/2-91 Phan Huy Ich,"89/2 -91 Phan Huy Ích, P.15, Quận Tân Bình, Tp HCM",HCM,Ho Chi Minh,Tan Binh,22,50
46,HCM - 241-245 Cong Hoa,"241-245 Công Hòa, P13, Tân Bình",HCM,Ho Chi Minh,Tan Binh,21,50
608,HCM - 9 Út Tịch,"9 Út Tịch, Phường 4, Quận Tân Bình, Thành Phố Hồ Chí Minh.",HCM,Ho Chi Minh,Tan Binh,19,50
187,HCM - 788 Au Co,"788 Âu Cơ, phường 14, quận Tân Bình, Tp.HCM",HCM,Ho Chi Minh,Tan Binh,26,50
545,HCM - 304B Trường Chinh,"304B Trường Chinh, Phường 13, Quận Tân Bình, Thành phố Hồ Chí Minh",HCM,Ho Chi Minh,Tan Binh,21,50
734,HCM - 686 Trường Chinh,"686 Trường Chinh, Phường 15, Quận Tân Bình, Thành Phố Hồ Chí Minh",HCM,Ho Chi Minh,Tan Binh,24,50
559,HCM - 85-87 Vườn Lài,"85-87 Vườn Lài, Phường Phú Thọ Hòa, Quận Tân Phú, Thành phố Hồ Chí Minh",HCM,Ho Chi Minh,Tan Phu,27,50
328,HCM - 484 Luy Ban Bich,"484 Lũy Bán Bích, phường Hòa Thạnh, quận Tân Phú",HCM,Ho Chi Minh,Tan Phu,27,50
256,HCM - 311A Thoai Ngoc Hau,"311A Thoại Ngọc Hầu, P. Tân Hiệp, Tân Phú, TPHCM",HCM,Ho Chi Minh,Tan Phu,28,50
437,HCM - Aeon Mall Tan Phu,"S12, Tầng 2, Trung tâm thương mua sắm Aeon Mall - Tân Phú Celadon, 30 Bờ Bao Tân Thắng, Phường Sơn Kỳ, Quận Tân Phú, Thành phố Hồ Chí Minh",HCM,Ho Chi Minh,Tan Phu,25,50
519,HCM - 212-214A Bình Long,"212-214A, đường Bình Long, Phường Phú Thạnh, Quận Tân Phú, Thành phố Hồ Chí Minh",HCM,Ho Chi Minh,Tan Phu,27,50
660,HCM - 85-87 Tây Thạnh,"85-87 Tây Thạnh, Phường Tây Thạnh, Quận Tân Phú, Thành Phố Hồ Chí Minh",HCM,Ho Chi Minh,Tan Phu,23,50
223,HCM - 213-215 Tan Huong,"213 - 215 Tân Hương, phường Tân Quý, quận Tân Phú, TPHCM",HCM,Ho Chi Minh,Tan Phu,27,50
180,HCM - 129-131 Le Trong Tan,"129 - 131 Lê Trọng Tấn, P.Sơn Kỳ, Q.Tân Phú, HCM",HCM,Ho Chi Minh,Tan Phu,25,50
60,HCM - 182 Hoa Binh,182D Hòa Bình P Hiệp Tận Quận Tân Phú,HCM,Ho Chi Minh,Tan Phu,28,50
362,HCM - 827 Au Co,"827 Âu Cơ, phường Tân Thành, quận Tân Phú, TPHCM",HCM,Ho Chi Minh,Tan Phu,25,50
440,HCM - 43D Hoa Binh,"Số 43D Hòa Bình, Phường Tân Thới Hòa, Quận Tân Phú, Thành phố Hồ Chí Minh",HCM,Ho Chi Minh,Tan Phu,24,50
505,HCM - 179 Độc Lập,"179 Độc Lập, Phường Tân Quý, Quận Tân Phú, Thành phố Hồ Chí Minh",HCM,Ho Chi Minh,Tan Phu,26,50
627,HCM - 285 Âu Cơ,"285 Âu Cơ, Phường Phú Trung, Quận Tân Phú, Thành Phố Hồ Chí Minh",HCM,Ho Chi Minh,Tan Phu,22,50
116,HCM - D1B Ap 4 Binh Chanh,"D1B Ấp 4, xã Bình Chánh, huyện Bình Chánh, TpHCM",HCM,Ho Chi Minh,Binh Chanh,42,50
525,HCM - B5/4A-B5/5 Trần Đại Nghĩa,"B5/4A-B5/5 Trần Đại Nghĩa, Xã Tân Kiên, Huyện Bình Chánh, Thành phố Hồ Chí Minh",HCM,Ho Chi Minh,Binh Chanh,34,50
584,HCM - D13/40A Pham Van Sang,"D13/40A Phạm Văn Sáng, Ấp 4, Xã Vĩnh Lộc A, Huyện Bình Chánh, Thành phố Hồ Chí Minh.",HCM,Ho Chi Minh,Binh Chanh,25,50
65,HCM - C1 Pham Hung,"C1/20A Đường Phạm Hùng , Ấp 4 Xã Bình Hưng , Huyện Bình Chánh , Tp.HCM",HCM,Ho Chi Minh,Binh Chanh,29,50
79,HCM - A3/15 Quoc Lo 50,"A3/15 Ấp 2, Xã Bình Hưng, Bình Chánh, Hồ Chí Minh",HCM,Ho Chi Minh,Binh Chanh,30,50
349,HCM - E9/9 Nguyen Huu Tri,"E9/9 Nguyễn Hữu Trí, khu phố 5, Tân Túc, Bình Chánh, TPHCM",HCM,Ho Chi Minh,Binh Chanh,37,50
344,HCM - D12/37 Dinh Duc Thien,"D12/37 đường Đinh Đức Thiện, ấp 4, xã Bình Chánh, huyện Bình Chánh, TPHCM",HCM,Ho Chi Minh,Binh Chanh,42,50
361,HCM - B6/190 Quoc Lo 50,"B6/190 QL50, Ấp 2, xã Phong Phú, huyện Bình Chánh, TPHCM",HCM,Ho Chi Minh,Binh Chanh,30,50
374,HCM - 326A/13 An Phu Tay,"326A/13 An Phú Tây - Hưng Long, ấp 1, xã An Phú Tây, huyện Bình Chánh, TPHCM",HCM,Ho Chi Minh,Binh Chanh,40,50
572,HCM - E9/6A Thoi Hoa,"E9/6A Thới Hòa, Ấp 5A, Xã Vĩnh Lộc A, Huyện Bình Chánh, Thành Phố Hồ Chí Minh",HCM,Ho Chi Minh,Binh Chanh,24,50
682,HCM - 2090 Vĩnh Lộc,"2090 Vĩnh Lộc, Ấp 4, Xã Vĩnh Lộc B, huyện Bình Chánh, Thành phố Hồ Chí Minh",HCM,Ho Chi Minh,Binh Chanh,26,50
672,HCM - A4/4A Trần Văn Giàu,"A4/4A Trần Văn Giàu, Ấp 1, xã Lê Minh Xuân, huyện Bình Chánh, Thành phố Hồ Chí Minh",HCM,Ho Chi Minh,Binh Chanh,33,50
685,HCM - B15/7 Quốc Lộ 50,"B15/7 Quốc Lộ 50, ấp 3A, Xã Bình Hưng, Huyện Bình Chánh, TP.HCM",HCM,Ho Chi Minh,Binh Chanh,31,50
708,HCM - D2/40B Đoàn Nguyễn Tuấn,"D2/40B đường Đoàn Nguyễn Tuấn, ấp 4, xã Hưng Long , Huyện Bình Chánh, TPHCM",HCM,Ho Chi Minh,Binh Chanh,43,50
702,HCM - F2/29R - F3/221K2 Liên ấp 2-6,"F2/29R - F3/221K2 Liên ấp 2-6, ấp 6, Xã Vĩnh Lộc A, Huyện Bình Chánh, Thành phố Hồ Chí Minh",HCM,Ho Chi Minh,Binh Chanh,26,50
744,HCM - G16/21 Trần Đại Nghĩa,"G16/21 Trần Đại Nghĩa, Ấp 7, Xã Lê Minh Xuân, Huyện Bình Chánh, Thành phố Hồ Chí Minh",HCM,Ho Chi Minh,Binh Chanh,33,50
87,HCM - 631 Tinh Lo 10,"631 Tỉnh Lệ 10, P. Bình Trị Đông, Bình Tân",HCM,Ho Chi Minh,Binh Tan,31,50
460,HCM - 258-260 Phạm Văn Hai,"258-260 Phạm Văn Hai, Phường 5, Quận Tân Bình, Thành phố Hồ Chí Minh",HCM,Ho Chi Minh,Tan Binh,20,50
429,HCM - 2 Duong So 40,"Số 2, Đường số 40, Khu phố 8, Phường Tân Tạo, Quận Bình Tân, Thành phố Hồ Chí Minh",HCM,Ho Chi Minh,Binh Tan,30,50
564,HCM - 232A-232B Go Xoai,"232A - 232B Gò Xoài, Khu phố 3, Phường Bình Hưng Hòa A, Quận Bình Tân, Thành phố Hồ Chí Minh.",HCM,Ho Chi Minh,Binh Tan,27,50
215,HCM - 755 Le Trong Tan,"751-753-755 Đường Lê Trọng Tấn, Phường Bình Hưng Hòa, Quận Bình Tân, Thành phố Hồ Chí Minh",HCM,Ho Chi Minh,Binh Tan,23,50
303,HCM - 392 Le Van Quoi,"392 Lê Văn Quới, Phường 11, Bình Tân, Tp Hồ Chí Minh",HCM,Ho Chi Minh,Binh Tan,29,50
257,HCM - 202 Kinh Duong Vuong,"202 Kinh Dương Vương, KP 4, Phường An Lạc A, Quận Bình Tân, TP HCM",HCM,Ho Chi Minh,Binh Tan,27,50
207,HCM - 333-335 Duong So 7,"333 - 335 , đường số 7 , phường Bình Trị Đông B, quận Bình Tân, thành phố Hồ Chí Minh",HCM,Ho Chi Minh,Binh Tan,33,50
138,HCM - 97 Nguyen Thi Tu,"97 -101 Nguyễn Thị Tú, khu phố 3, Phường Bình Hưng Hòa B, Quận Bình Tân, Thành phố Hồ Chí Minh, Việt Nam",HCM,Ho Chi Minh,Binh Tan,26,50
275,HCM - 406C Ma Lo,"Số 406C Mã Lò, Khu phố 22, Phường Bình Hưng Hòa A, Quận Bình Tân, Thành phố Hồ Chí Minh",HCM,Ho Chi Minh,Binh Tan,27,50
498,HCM - 470 Hồ Học Lãm,"470 Hồ Học Lãm, Khu phố 3, Phường An Lạc, Quận Bình Tân",HCM,Ho Chi Minh,Binh Tan,33,50
372,HCM - 564A Huong Lo 2,"564A Hương Lộ 2, KP6, P.Bình Trị Đông, Bình Tân",HCM,Ho Chi Minh,Binh Tan,30,50
534,HCM - 1355 Tỉnh lộ 10,"1355 Tỉnh lộ 10, Khu phố 2, Phường Tân Tạo A, Quận Bình Tân, Thành phố Hồ Chí Minh",HCM,Ho Chi Minh,Binh Tan,30,50
570,HCM - 178 - 180 Ten Lua,"178-180 Tên Lửa, Phường Bình Trị Đông B, Quận Bình Tân, Thành phố Hồ Chí Minh",HCM,Ho Chi Minh,Binh Tan,34,50
603,HCM - 123 Lê Văn Quới,"123 Lê Văn Quới, Khu phố 2, Phường Bình Trị Đông, Quận Bình Tân, Thành Phố Hồ Chí Minh",HCM,Ho Chi Minh,Binh Tan,29,50
691,HCM - 2 Mã Lò,"02 đường Mã Lò, Khu phố 1, Phường Bình Trị Đông A, Quận Bình Tân, Thành phố Hồ Chí Minh",HCM,Ho Chi Minh,Binh Tan,28,50
758,HCM - 50B Tây Lân,"50B Tây Lân, Khu phố 7, Phường Bình Trị Đông A, Quận Bình Tân, Thành phố Hồ Chí Minh.",HCM,Ho Chi Minh,Binh Tan,28,50
715,HCM - 659 Hương Lộ 3,"659 Hương lộ 3, Khu phố 10, Phường Bình Hưng Hòa, Quận Bình Tân, Thành phố Hồ Chí Minh",HCM,Ho Chi Minh,Binh Tan,24,50
294,HCM - 304A No Trang Long,"304A Nơ Trang Long, P12, Q.Bình Thạnh, TPHCM",HCM,Ho Chi Minh,Binh Thanh,14,50
174,HCM - Sai Gon Pearl,"Sai Gòn Pearl, 92 Nguyễn Hữu Cảnh, P.22, Q. Bình Thạnh",HCM,Ho Chi Minh,Binh Thanh,17,50
493,HCM - 16 Nguyễn Văn Thương,"16 Nguyễn Văn Thương, Phường 25, Quận Bình Thạnh, Thành phố Hồ Chí Minh",HCM,Ho Chi Minh,Binh Thanh,15,50
504,HCM - 401 Nơ Trang Long,"401 Nơ Trang Long, Phường 13, Quận Bình Thạnh, Thành phố Hồ Chí Minh",HCM,Ho Chi Minh,Binh Thanh,13,50
606,HCM - 385 Bùi Đình Túy,"385 Bùi Đình Túy, Phường 14, Quận Bình Thạnh, Hồ Chí Minh",HCM,Ho Chi Minh,Binh Thanh,15,50
612,HCM - 84 Nguyễn Văn Đậu,"84 Nguyễn Văn Đậu, P7, Q Bình Thạnh, TP. Hồ Chí Minh",HCM,Ho Chi Minh,Binh Thanh,16,50
686,HCM - 307B-307D Lê Quang Định,"307B-307D Lê Quang Định, Phường 7, Quận Bình Thạnh, Thành Phố Hồ Chí Minh",HCM,Ho Chi Minh,Binh Thanh,15,50
724,HCM - 170A Cư xá Bình Hòa,"170A Cư xá Bình Hòa, Nơ Trang Long, Phường 12, Quận Bình Thạnh, Thành phố Hồ Chí Minh",HCM,Ho Chi Minh,Binh Thanh,14,50
687,HCM - 9 – 11 – 13 Nguyễn Trãi,"9 – 11 – 13 Nguyễn Trãi, Phường Bến Thành, Quận 1, Thành phố Hồ Chí Minh",HCM,Ho Chi Minh,Quan 1,19,50
126,HCM - 291 CMT8,"291 Cách Mạng Tháng 8, Phường 12, Quận 10, TP. HCM",HCM,Ho Chi Minh,Quan 10,20,50
154,HCM - 338 Ngo Gia Tu,"338 - 342  Ngô Gia Tự, P.4, Q.10, TP.HCM",HCM,Ho Chi Minh,Quan 10,21,50
48,HCM - 703 Le Hong Phong,"703 Lê Hồng Phong, P12, Q10",HCM,Ho Chi Minh,Quan 10,20,50
192,HCM - 391 Ly Thai To,"391 Lý Thái Tổ, phường 9, Quận 10",HCM,Ho Chi Minh,Quan 10,21,50
546,HCM - 140 Lý Thường Kiệt,"140 Lý Thường Kiệt, Phường 7, Quận 10, Thành phố Hồ Chí Minh.",HCM,Ho Chi Minh,Quan 10,22,50
43,HCM - 174-176 Ta Uyen,"174-176 Tạ Uyên, Phường 6, Quận 11",HCM,Ho Chi Minh,Quan 11,23,50
664,HCM - 383C – 383C Bis Minh Phụng,"383C – 383C Bis Minh Phụng, Phường 10, Quận 11, Thành phố Hồ Chí Minh.",HCM,Ho Chi Minh,Quan 11,24,50
648,HCM - B148Bis Nguyễn Văn Quá,"B148Bis Nguyễn Văn Quá, Khu phố 3, Phường Đông Hưng Thuận, Quận 12, Thành phố Hồ Chí Minh",HCM,Ho Chi Minh,Quan 12,20,50
216,HCM - 829-829A Ha Huy Giap,"829 - 829A Hà Huy Giáp, phường Thạnh Xuân, quận 12, TPHCM",HCM,Ho Chi Minh,Quan 12,8,50
141,HCM - 107/1 Le Van Khuong,"107/1 Lê Văn Khương, P. Thới An, Q.12, HCM",HCM,Ho Chi Minh,Quan 12,15,50
297,HCM - 911A-911B Nguyen Anh Thu,"911A – 911B đường Nguyễn Ảnh Thủ, P.Tân Chánh Hiệp, Quận 12, Tp.Hồ Chí Minh",HCM,Ho Chi Minh,Quan 12,19,50
179,HCM - 43A Nguyen Anh Thu,"43A Nguyễn Ảnh Thủ, Khu phố 2, Phường Hiệp Thành Quận 12, HCM",HCM,Ho Chi Minh,Quan 12,14,50
123,HCM - 12/6 To Ky,"12/6 Tô Ký, P. Tân Chánh Hiệp, Q.12, HCM",HCM,Ho Chi Minh,Quan 12,20,50
238,HCM - 972-974-976 Nguyen Van Qua,"972-974-976 Nguyễn Văn Quá, phường Đông Hưng Thuận, quận 12, TPHCM",HCM,Ho Chi Minh,Quan 12,20,50
341,HCM - 6C-10Bis Truong Chinh,"6C-10bis Trường Chinh, Tân Hưng Thuận, Q12",HCM,Ho Chi Minh,Quan 12,20,50
415,HCM - 17/15A Khu pho 6,"17/15 Đường Phan Văn Hớn, Khu phố 6A, Phường Tân Thới Nhất, Quận 12, Thành phố Hồ Chí Minh",HCM,Ho Chi Minh,Quan 12,21,50
553,HCM - 2167/1B Vườn Lài,"2167/1B Vườn Lài, Khu phố 1, Phường An Phú Đông, Quận 12, Thành phố Hồ Chí Minh",HCM,Ho Chi Minh,Quan 12,10,50
637,HCM - 74 Đông Hưng Thuận 2,"74 Đông Hưng Thuận 2, Phường Đông Hưng Thuận, Quận 12, Thành Phố Hồ Chí Minh",HCM,Ho Chi Minh,Quan 12,21,50
761,HCM - 257 Nguyễn Thị Đặng,"257 Nguyễn Thị Đặng (số cũ 257 TTH22), Khu Phố 2, Phường Tân Thới Hiệp, Quận 12, TP. Hồ Chí Minh",HCM,Ho Chi Minh,Quan 12,16,50
447,HCM - 396 Le Van Sy,"396 Lê Văn Sỹ, Phường 14, Quận 3, Thành phố Hồ Chí Minh",HCM,Ho Chi Minh,Quan 3,19,50
542,HCM - 510 Nguyễn Thị Minh Khai,"510 Nguyễn Thị Minh Khai, Phường 2, Quận 3, Thành phố Hồ Chí Minh",HCM,Ho Chi Minh,Quan 3,20,50
659,HCM - 424A Nguyễn Thị Minh Khai,"424A Nguyễn Thị Minh Khai, P5, Q3, Thành phố Hồ Chí Minh",HCM,Ho Chi Minh,Quan 3,19,50
58,HCM - 317 Hoang Dieu,"317 Hoàng Diệu, P6, Q4",HCM,Ho Chi Minh,Quan 4,20,50
439,HCM - 247 Hong Bang,"245 - 247 Hồng Bàng, Phường 11, Quận 5, Thành phố Hồ Chí Minh,Việt Nam",HCM,Ho Chi Minh,Quan 5,27,50
467,HCM - 77 - 79 An Dương Vương,"77 - 79 An Dương Vương, Phường 8, quận 5, TPHCM",HCM,Ho Chi Minh,Quan 5,22,50
620,HCM - 386 Trần Hưng Đạo,"386 Trần Hưng Đạo, Phường 2, Quận 5, Thành phố Hồ Chí Minh",HCM,Ho Chi Minh,Quan 5,24,50
101,HCM - 553 Hau Giang,"553 Hậu Giang, Phường 11, Quận 6, HCM",HCM,Ho Chi Minh,Quan 6,26,50
156,HCM - 37A Nguyen Thi Nho,"37A-37B Nguyễn Thị Nhỏ, P2, Q6, Tp.HCM",HCM,Ho Chi Minh,Quan 6,23,50
422,HCM - 107 Mai Xuan Thuong,"107 Mai Xuân Thưởng, Phường 4, Quận 6, TPHCM",HCM,Ho Chi Minh,Quan 6,28,50
631,HCM - 43V Cư Xá Phú Lâm D,"43V đường Cư Xá Phú Lâm D, Phường 10, Quận 6, TP.HCM",HCM,Ho Chi Minh,Quan 6,31,50
582,HCM - 182 Dương Bá Trạc,"182 Dương Bá Trạc, Phường 2, Quận 8, Thành phố Hồ Chí Minh",HCM,Ho Chi Minh,Quan 8,25,50
527,HCM - 48A An Dương Vương,"48A An Dương Vương, Phường 16, Quận 8, Thành phố Hồ Chí Minh",HCM,Ho Chi Minh,Quan 8,36,50
423,HCM - 871 Pham The Hien,"871 Phạm Thế Hiển, Phường 4, Quận 8, TP.HCM",HCM,Ho Chi Minh,Quan 8,27,50
575,HCM - 2 Tuy Ly Vuong,"2 Tuy Lý Vương, Phường 13, Quận 8, Thành phố Hồ Chí Minh",HCM,Ho Chi Minh,Quan 8,28,50
476,HCM - 307 Nguyễn Sơn,"307 Nguyễn Sơn, Phường Phú Thạnh, Quận Tân Phú, Thành phố Hồ Chí Minh",HCM,Ho Chi Minh,Tan Phu,27,50
693,HCM - 121-135/1 Tân Kỳ Tân Quý,"121-135/1 Tân Kỳ Tân Quý, Phường Tân Sơn Nhì, Quận Tân Phú, Thành phố Hồ Chí Minh",HCM,Ho Chi Minh,Tan Phu,25,50
42,HCM - 753 Kha Van Can,"753 Kha Vạn Cân, Phường Linh Tây, Thành phố Thủ Đức, Thành phố Hồ Chí Minh",HCM,Ho Chi Minh,Thu Duc,9,50
463,HCM - 744 Phạm Văn Đồng,"744 Phạm Văn Đồng, Khu phố 4, Phường Hiệp Bình Chánh, Thành phố Thủ Đức, Thành phố Hồ Chí Minh",HCM,Ho Chi Minh,Thu duc,13,50
418,HCM - 1069 Tinh Lo 43,"1069 Tỉnh Lộ 43, Khu Phố 2, Phường Bình Chiểu, Thành phố Thủ Đức, Thành phố Hồ Chí Minh",HCM,Ho Chi Minh,Thu Duc,5,50
430,HCM - 478 To Ngoc Van,"487 Tô Ngọc Vân , Khu Phố 1, Phường Tam Phú, Thành phố Thủ Đức, Thành phố Hồ Chí Minh",HCM,Ho Chi Minh,Thu Duc,7,50
521,HCM - 742 - 744 Tỉnh Lộ 43,"742 - 744 Tỉnh Lộ 43, Khu phố 3, Phường Bình Chiểu, Thành phố Thủ Đức, Thành phố Hồ Chí Minh",HCM,Ho Chi Minh,Thu Duc,5,50
556,HCM - 79A - 81 đường Hiệp Bình,"79A - 81 đường Hiệp Bình, Phường Hiệp Bình Chánh, Thành phố Thủ Đức, Thành phố Hồ Chí Minh",HCM,Ho Chi Minh,Thu Duc,10,50
628,HCM - 416 Quốc lộ 13,"HCM - 416 Quốc lộ 13, Khu phố 6, Phường Hiệp Bình Phước,Thành phố Thủ Đức",HCM,Ho Chi Minh,Thu Duc,11,50
697,HCM - 158 Đặng Văn Bi,"158 Đặng Văn Bi, Khu phố 1, Phường Bình Thọ, Thành phố Thủ Đức, Thành phố Hồ Chí Minh",HCM,Ho Chi Minh,Thu Duc,10,50
739,HCM - 21 Đường 154,"Số 21 Đường 154, Phường Tân Phú, Thành phố Thủ Đức, Thành phố Hồ Chí Minh",HCM,Ho Chi Minh,Thu Duc,12,50
673,HCM - 213 Linh Đông,"213 Linh Đông, KP3, phường Linh Đông, TP. Thủ Đức, Thành phố Hồ Chí Minh",HCM,Ho Chi Minh,Thu Duc,9,50
743,HCM - 597 Lê Văn Việt,"597 Lê Văn Việt, Khu phố 5, Phường Tăng Nhơn Phú A, Thành phố Thủ Đức, Thành phố Hồ Chí Minh.",HCM,Ho Chi Minh,Thu Duc,15,50
768,HCM - 15-17-19 Đường số 1,"15-17-19 Đường số 1, Khu Phố 4, Phường An Lạc A, Quận Bình Tân, Thành phố Hồ Chí Minh",HCM,Ho Chi Minh,Binh Tan,34,50
779,HCM - 4423 Nguyễn Cửu Phú,"4423 Nguyễn Cửu Phú, Khu Phố 4, Phường Tân Tạo A, Quận Bình Tân, Thành Phố Hồ Chí Minh",HCM,Ho Chi Minh,Binh Tan,30,50
777,HCM - 760 Xô Viết Nghệ Tĩnh,"760 Xô Viết Nghệ Tĩnh, Phường 25, Quận Bình Thạnh, Thành Phố Hồ Chí Minh",HCM,Ho Chi Minh,Binh Thanh,14,50
776,HCM - 56A Đường số 2,"56A Đường số 2, Khu phố 8, Phường Trường Thọ, Thành phố Thủ Đức, Thành phố Hồ Chí Minh",HCM,Ho Chi Minh,Thu Duc,12,50
785,HCM - 83 Đường số 8,"Số 83 Đường số 8, Khu phố 1, Phường Linh Xuân, Thành Phố Thủ Đức, Thành Phố Hồ Chí Minh",HCM,Ho Chi Minh,Thu Duc,8,50
763,HCM - 218 Thành Thái,"218 Thành Thái, Phường 12, Quận 10, Thành phố Hồ Chí Minh",HCM,Ho Chi Minh,Quan 10,21,50
764,HCM - 94 Châu Văn Liêm,"94 Châu Văn Liêm, Phường 11, Quận 5, Thành phố Hồ Chí Minh",HCM,Ho Chi Minh,Quan 5,27,50
795,HCM - 223 Hưng Nhơn,"223 Đường Hưng Nhơn, Ấp 3, Xã Tân Kiên, Huyện Bình Chánh, Thành Phố Hồ Chí Minh",HCM,Ho Chi Minh,Binh Chanh,35,50
792,HCM - A009 120-120B Ngô Tất Tố,"A009 Lô A (tầng trệt) chung cư, số 120-120B Ngô Tất Tố, Phường.19, Quận Bình Thạnh, TPHCM",HCM,Ho Chi Minh,Binh Thanh,16,50
804,HCM - 71 Thạnh Lộc 16,"71 Thạnh Lộc 16, Phường Thạnh Lộc, Quận 12, TP Hồ Chí Minh",HCM,Ho Chi Minh,Quan 12,12,50
825,HCM - 460 - 462 Cách Mạng Tháng 8,"460 - 462 Cách Mạng Tháng 8, Phường 11, Quận 3, Thành phố Hồ Chí Minh",HCM,Ho Chi Minh,Quan 3,20,50
811,HCM - 159 Tăng Nhơn Phú,"159 đường Tăng Nhơn Phú , Khu phố 3, Phường Phước Long B, Thành phố Thủ Đức, Thành phố Hồ Chí Minh",HCM,Ho Chi Minh,Thu Duc,15,50
778,HCM - C38 Dương Quảng Hàm,"C38 Dương Quảng Hàm, Phường 07, Quận Gò Vấp, Thành phố Hồ Chí Minh",HCM,Ho Chi Minh,Go Vap,15,50
783,HCM - 27/4A Đỗ Văn Dậy,"27/4A đường Đỗ Văn Dậy, Ấp Tân Thới 1, Xã Tân Hiệp, Huyện Hóc Môn, Thành Phố Hồ Chí Minh",HCM,Ho Chi Minh,Hoc Mon,20,50
774,HCM - 129-129A Huỳnh Văn Bánh,"129 - 129A Huỳnh Văn Bánh, Phường 11, Quận Phú Nhuận, TP. Hồ Chí Minh",HCM,Ho Chi Minh,Phu Nhuan,19,50
834,HCM - 91/4B Hà Huy Giáp,"91/4B Hà Huy Giáp, Khu Phố 3, Phường Thạnh Xuân, Quận 12, Thành phố Hồ Chí Minh",HCM,Ho Chi Minh,Quan 12,10,50
832,HCM - 350 Phạm Thế Hiển,"350 Phạm Thế Hiển, Phường 5, Quận 8, Thành phố Hồ Chí Minh",HCM,Ho Chi Minh,Quan 8,28,50
850,HCM - 619 Tô Ngọc Vân,"619 Tô Ngọc Vân, Khu Phố 04, Phường Tam Bình, Thành Phố Thủ Đức, Thành phố Hồ Chí Minh",HCM,Ho Chi Minh,Thu Duc,7,50
847,HCM - 176 Gò Dầu,"176 Gò Dầu, Phường Tân Quý, Quận Tân Phú, Thành phố Hồ Chí Minh",HCM,Ho Chi Minh,Tan Phu,27,50
843,HCM - 168 đường Lê Đình Cẩn,"168 đường Lê Đình Cẩn, khu phố 6, phường Tân Tạo, Quận Bình Tân, Thành phố Hồ Chí Minh",HCM,Ho Chi Minh,Binh Tan,31,50
837,HCM - 14/5 Đặng Thúc Vịnh,"14/5 đường Đặng Thúc Vịnh, Ấp Trung Đông 1, Xã Thới Tam Thôn, Huyện Hóc Môn, Thành phố Hồ Chí Minh",HCM,Ho Chi Minh,Hoc Mon,18,50
893,HCM - 705 Nguyễn Thị Định,"705 Nguyễn Thị Định, Khu phố 2, Phường Cát Lái, Thành phố Thủ Đức, Thành Phố Hồ Chí Minh",HCM,Ho Chi Minh,Thu Duc,22,50
855,HCM - 1647 TL10,"1647 Tỉnh lộ 10, Khu phố 5, Phường Tân Tạo A, Quận Bình Tân, Thành Phố Hồ Chí Minh",HCM,Ho Chi Minh,Binh Tan,31,50
869,Kho Lazada Con Cưng,"tầng 1+ 2, Lô C Chung cư Tân Mỹ, đường Tân Mỹ, Phường Tân Phú, Quận 7, Thành phố Hồ Chí Minh.",HCM,Ho Chi Minh,Quan 7,24,50
899,HCM - 54 Hồ Học Lãm,"54 Hồ Học Lãm, Phường 16, Quận 8, Thành Phố Hồ Chí Minh",HCM,Ho Chi Minh,Quan 8,35,50
898,HCM - 98 Đường số 15,"98 đường số 15, khu phố 2, Phường Tân Kiểng, Quận 7, Thành Phố Hồ Chí Minh",HCM,Ho Chi Minh,Quan 7,23,50
923,HCM - 54 - 56 đường số 3,"54 – 56 Đường số 3, khu dân cư Vĩnh Lộc, Phường Bình Hưng Hoà B, Quận Bình Tân, Thành Phố Hồ Chí Minh",HCM,Ho Chi Minh,Binh Tan,25,50
935,HCM - 156 đường 11,"156 đường số 11, Khu phố 5, Phường Linh Xuân, Thành phố Thủ Đức, Thành Phố Hồ Chí Minh",HCM,Ho Chi Minh,Thu Duc,6,50
944,HCM - 186 đường 51,"186 đường số 51, Phường An Phú, Thành phố Thủ Đức, Thành phố Hồ Chí Minh",HCM,Ho Chi Minh,Thu Duc,18,50
203,HUE - 1 Ba Trieu,"01 Bà Triệu, Phường Xuân Phú, TP. Huế, Tỉnh Thừa Thiên Huế",Central3,Hue,Hue,952,#N/A
623,HUE - 111 Mai Thúc Loan,"111 Mai Thúc Loan, phường Thuận Thành, thành phố Huế, tỉnh Thừa Thiên Huế",Central3,Hue,Hue,955,#N/A
733,HUE - 1 Trần Phú,"01 Trần Phú, phường Phước Vĩnh, Thành phố Huế",Central3,Hue,Hue,953,#N/A
737,HUE - 35 Hà Nội,"35 Hà Nội, phường Phú Nhuận, thành phố Huế, tỉnh Thừa Thiên Huế",Central3,Hue,Hue,952,#N/A
679,HUE - 39A Thạch Hãn,"39A Thạch Hãn, phường Thuận Hòa, thành phố Huế, tỉnh Thừa Thiên Huế",Central3,Hue,Hue,955,#N/A
845,HUE - 1136 - 1138 Nguyễn Tất Thành,"1136-1138 Nguyễn Tất Thành, phường Phú Bài, thị xã Hương Thuỷ, tỉnh Thừa Thiên Huế",Central3,Hue,Huong Thuy,941,#N/A
351,KHO - 08 Phan Boi Chau,"08 Phan Bội Châu, tổ DP Phan Bội Châu 2, thị trấn Diên Khánh, huyện Diên Khánh, Khánh Hòa",Central1,Khanh Hoa,Dien Khanh,409,41
276,KHO - 310-312 Thong Nhat,"310 - 312 Thống Nhất, P. Phương Sơn, Tp. Nha Trang, Khánh Hòa",Central1,Khanh Hoa,Nha Trang,413,41
273,KHO - 2E-2F Duong 2/4,"2E-2F đường 2 tháng 4, phường Vĩnh Thạnh, Tp Nha Trang, Tỉnh Khánh Hoà",Central1,Khanh Hoa,Nha Trang,414,41
342,KHO - 70 Le Hong Phong,"70 đường Lê Hồng Phong , phường Phước Hải, thành phố Nha Trang, Khánh Hòa",Central1,Khanh Hoa,Nha Trang,415,41
378,KHO - Lo 06-07 Duong 23/10,"Lô 06-07 Đường 23/10, thôn Vĩnh Điềm Trung, xã Vĩnh Hiệp, Tp. Nha Trang, Tỉnh Khánh Hòa",Central1,Khanh Hoa,Nha Trang,413,41
532,KHO - B5-B6 Chung cư Vĩnh Phước,"B5 - B6 (tầng 1) Chung cư Vĩnh Phước, Đường 2/4, Phường Vĩnh Phước, Thành phố Nha Trang, Tỉnh Khánh Hòa.",Central1,Khanh Hoa,Nha Trang,417,41
580,KHO - 1067 Le Hong Phong,"1067 Lê Hồng Phong, phường Phước Long, thành phố Nha Trang, tỉnh Khánh Hòa",Central1,Khanh Hoa,Nha Trang,409,41
599,KHO - 19 Hoàng Diệu,"19 Hoàng Diệu, phường Vĩnh Nguyên, thành phố Nha Trang, tỉnh Khánh Hòa",Central1,Khanh Hoa,Nha Trang,409,41
621,KHO - 45A Nguyễn Thị Minh Khai,"45A Nguyễn Thị Minh Khai, phường Tân Lập, thành phố Nha Trang, tỉnh Khánh Hòa",Central1,Khanh Hoa,Nha Trang,412,41
646,KHO - 135 Võ Thị Sáu,"135 Võ Thị Sáu, phường Vĩnh Trường, thành phố Nha Trang, tỉnh Khánh Hòa",Central1,Khanh Hoa,Nha Trang,410,41
680,KHO -  26 Điện Biên Phủ,"26 Điện Biên Phủ, phường Vĩnh Hòa, thành phố Nha Trang, tỉnh Khánh Hòa",Central1,Khanh Hoa,Nha Trang,418,41
579,KHO - 05 Nguyen Thi Ngoc Oanh,"05 Nguyễn Thị Ngọc Oanh, phường Ninh Hiệp, Thị xã Ninh Hòa, tỉnh Khánh Hòa",Central1,Khanh Hoa,Ninh Hoa,445,41
144,KHO - 2197 Dai Lo Hung Vuong,"2193 -2195 - 2197 Đại Lộ Hùng Vương, Phường Cam Lợi, Thành Phố Cam Ranh, Tỉnh Khánh Hòa, Việt Nam",Central1,Khanh Hoa,Cam Ranh,361,41
405,KHO - 288 Dai Lo Hung Vuong,"288 Đại Lộ Hùng Vương, tổ dân phố Hòa Thuận, Phường Cam Nghĩa, Thành phố Cam Ranh, Tỉnh Khánh Hoà",Central1,Khanh Hoa,Cam Ranh,368,41
577,KHO - 2436 Dai Lo Hung Vuong,"2436 Đại Lộ Hùng Vương, tổ dân phố Hương Long, phường Ba Ngòi, thành phố Cam Ranh, tỉnh Khánh Hòa",Central1,Khanh Hoa,Cam Ranh,367,41
793,KHO - Thôn Dầu Sơn,"Thửa đất số 236, tờ bản đồ số 24, thôn Dầu Sơn, xã Suối Tân, huyện Cam Lâm, tỉnh Khánh Hòa.",Central1,Khanh Hoa,Cam Lam,397,41
802,KHO - 182 Trần Quý Cáp,"182 Trần Quý Cáp, phường Ninh Hiệp, thị xã Ninh Hòa, tỉnh Khánh Hòa",Central1,Khanh Hoa,Ninh Hoa,446,41
589,KGI - KP3 TT thứ 11,"khu phố 3, TT Thứ 11, Huyện An Minh, Tỉnh Kiên Giang.",Mekong2,Kien Giang,An Minh,295,59
403,KGI - 709 Quoc Lo 61,"709 QL61, Khu Phố Minh An, Thị trấn Minh Lương, Huyện Châu Thành, Tỉnh Kiên Giang.",Mekong2,Kien Giang,Chau Thanh,250,59
370,KGI - DT 933,"DT 933, khu phố 6, Thị Trấn Giồng Riềng, Huyện Giồng Riềng, Tỉnh Kiên Giang .",Mekong2,Kien Giang,Giong Rieng,251,59
348,KGI - 178-180 Mac Thien Tich,"178-180 Mạc Thiên Tích, P. Pháo Đài, Tx  Hà Tiên, Tỉnh Kiên Giang",Mekong2,Kien Giang,Ha Tien,335,59
543,KGI - Lô 1 Đường số 8,"Lô 1 Đường số 8, Khu phố Thị Tứ, Thị trấn Sóc Sơn, Huyện Hòn Đất, Tỉnh Kiên Giang",Mekong2,Kien Giang,Hon Dat,267,59
280,KGI - 02 Tran Phu,"Số 02 , đường Trần Phú, khu phố Lý Thường Kiệt, phường Vĩnh Thanh, thành phố Rạch Giá, Tỉnh Kiên Giang",Mekong2,Kien Giang,Rach Gia,253,59
279,KGI - 13-14 Lo L04 Tran Quang Khai,"13 - 14, lô L04 , đường Trần Quang Khải, phường An Hoà, thành phố Rạch Giá, tỉnh Kiên Giang",Mekong2,Kien Giang,Rach Gia,252,59
407,KGI - 31 Mai Thi Hong Hanh,"31 Mai Thị Hồng Hạnh, Khu Phố 1, Phường Vĩnh Lợi, TP Rạch Giá, Tỉnh Kiên Giang.",Mekong2,Kien Giang,Rach Gia,247,59
336,KGI - 318-320 Nguyen Trung Truc,"318-320 Nguyễn Trung Trực , phường Vĩnh Lạc, tp Rạch Giá, Tỉnh  Kiên Giang",Mekong2,Kien Giang,Rach Gia,251,59
120,KGI - 32 Nguyen Trung Truc,"32 Nguyễn Trung Trực, P.Vĩnh Bảo, Tp. Rạch Giá, tỉnh Kiên Giang.",Mekong2,Kien Giang,Rach Gia,252,59
202,KGI - 127 Nguyen Van Cu,"127 Nguyễn Văn Cừ, Khu Phố 8, thị trấn An Thới, Phú Quốc, Kiên Giang",Mekong2,Kien Giang,Phu Quoc,424,59
849,KGI - 265 đường QL80,"265 đường QL80, tổ 10, khu phố Kiên Tân, thị trấn Kiên Lương, huyện Kiên Lương, tỉnh Kiên Giang",Mekong2,Kien Giang,Kien Luong,319,59
838,KGI - Lô L10-12 QL61,"Lô L10-12 Đường QL61, Chợ và Khu Dân Cư, xã Định An, huyện Gò Quao, tỉnh Kiên Giang",Mekong2,Kien Giang,Go Quao,243,59
868,KGI - Quốc Lộ 63,"Đường Quốc Lộ 63, Xã Thạnh Yên, Huyện U Minh Thượng, Tỉnh Kiên Giang",Mekong2,Kien Giang,U Minh Thuong,290,59
283,KTU - 263 Tran Hung Dao,"263 Trần Hưng Đạo, P. Quyết Thắng, TP Kon Tum, Tỉnh Kon Tum",Highland3,Kon Tum,KonTum,533,36
668,KTU - 318 Trần Hưng Đạo,"318 Trần Hưng Đạo, Thị Trấn Sa Thầy, Huyện Sa Thầy, Tỉnh Kon Tum",Highland3,Kon Tum,Sa Thay,560,36
772,KTU - 473 Hùng Vương,"473 Hùng Vương, tổ dân phố 4A, thị trấn Đắk Hà, Huyện Đắk Hà, tỉnh Kon Tum",Highland3,Kon Tum,Dak Ha,555,36
178,KTU - 691 Phan Dinh Phung,"691 Phan Đình Phùng, P. Duy Tân, Tx Kon Tum",Highland3,Kon Tum,KonTum,534,36
915,LCH - 49 Trần Hưng Đạo,"49 Đường Trần Hưng Đạo, Phường Đoàn Kết, Thành phố Lai Châu, Tỉnh Lai Châu",North,Lai Chau,Lai Chau,2006,4
634,LDO - Quốc Lộ 20,"Quốc lộ 20, thôn 7, xã Lộc An, Huyện Bảo Lâm, tỉnh Lâm Đồng.",Highland1,Lam Dong,Bao Lam,181,44
366,LDO - 861-863 Tran Phu,"861-863 Trần Phú, Tp Bảo Lộc, Lâm Đồng",Highland1,Lam Dong,Bao Loc,168,44
184,LDO - 287 Phan Dinh Phung,"287 Phan Đình Phùng, phường 12, Tp. Đà Lạt, Lâm Đồng",Highland1,Lam Dong,Da Lat,280,44
607,LDO - Big C Đà Lạt,"Quảng trường Lâm Viên, đường Trần Quốc Toản, Phường 1, Thành phố Đà Lạt, Lâm Đồng",Highland1,Lam Dong,Da Lat,278,44
633,LDO - 15 Ngô Quyền,"15 Ngô Quyền, phường 6, thành phố Đà Lạt, tỉnh Lâm Đồng",Highland1,Lam Dong,Da Lat,281,44
749,LDO - 81 Mê Linh,"81 Mê Linh, Phường 9, Thành phố Đà Lạt, Lâm Đồng",Highland1,Lam Dong,Da Lat,282,44
547,LDO - 21-22 Quốc Lộ 20,"21-22 Quốc Lộ 20, Thôn 2, Xã Hòa Ninh, Huyện Di Linh, Tỉnh Lâm Đồng",Highland1,Lam Dong,Di Linh,187,44
540,LDO - 321 đường 2/4,"321 đường 2/4, Thị trấn Thạnh Mỹ, Huyện Đơn Dương, Tỉnh Lâm Đồng.",Highland1,Lam Dong,Don Duong,265,44
233,LDO - 494 Quoc Lo 20,"494 Quốc lộ 20, thị trấn Liên Nghĩa, huyện Đức Trọng, tỉnh Lâm Đồng",Highland1,Lam Dong,Duc Trong,248,44
549,LDO - 19-21 Thống Nhất,"19-21 Thống Nhất, Thị trấn Liên Nghĩa, Huyện Đức Trọng, Tỉnh Lâm Đồng",Highland1,Lam Dong,Duc Trong,249,44
657,LDO - 78 Langbiang,"78 Langbiang, thị trấn Lạc Dương, huyện Lạc Dương, tỉnh Lâm Đồng",Highland1,Lam Dong,Lac Duong,290,44
367,LDO - 796-798 Hung Vuong,"796-798 Hùng Vương, thị trấn Đinh Văn, huyện Lâm Hà, tỉnh Lâm Đồng",Highland1,Lam Dong,Lam Ha,248,44
719,LDO - Liên Trung,"thửa đất số 821, tờ bản đồ số 7, thôn Liên Trung, xã Tân Hà, huyện Lâm Hà, tỉnh Lâm Đồng",Highland1,Lam Dong,Lam Ha,240,44
822,LDO - 4A - 4C Hải Thượng,"4A-4C Hải Thượng, phường 06, thành phố Đà Lạt, tỉnh Lâm Đồng",Highland1,Lam Dong,Da lat,280,44
205,LDO - 827-829 Hung Vuong,"827 - 829 Hùng Vương, thị trấn Di Linh, Lâm Đồng.",Highland1,Lam Dong,Di Linh,205,44
808,LDO - 12 Nguyễn Công Trứ,"12 Nguyễn Công Trứ, phường 8, Thành phố Đà Lạt tỉnh Lâm Đồng",Highland1,Lam Dong,Da lat,281,44
583,LDO - 143 Phạm Văn Đồng,"143 Phạm Văn Đồng, tổ dân phố 3, thị trấn Cát Tiên, huyện Cát Tiên, tỉnh Lâm Đồng.",Highland1,Lam Dong,Cat Tien,163,44
696,LDO - 109-111 Đường 3/2,"109-111 đường 3/2, thị trấn Đạ Tẻh, huyện Đạ Tẻh, tỉnh Lâm Đồng",Highland1,Lam Dong,Da Teh,150,44
523,LAN - 185 Phan Văn Mãng,"185 Phan Văn Mãng, Khu phố 9, Thị trấn Bến Lức, Huyện Bến Lức, Long An",Mekong1,Long An,Ben Luc,54,51
140,LAN - 2 Phan Van Mang,"2 Phan Văn Mảng, KP7, Bến Lức, Long An",Mekong1,Long An,Ben Luc,53,51
385,LAN - 277-278 ĐT835,"277-278 ĐT835 ấp 4 , xã Phước Lợi, huyện Bến Lức ,tỉnh Long An.",Mekong1,Long An,Ben Luc,46,51
629,LAN - 229-230 QL1A,"229-230 QL1A, ấp 1, xã Thạnh Đức, huyện Bến Lức, tỉnh Long An.",Mekong1,Long An,Ben Luc,56,51
717,LAN - 5 Nguyễn Văn Siêu,"05 Nguyễn Văn Siêu, khu phố 2, thị trấn Bến Lức, huyện Bến Lức, tỉnh Long An",Mekong1,Long An,Ben Luc,52,51
464,LAN - 46 Đường Chợ Mới,"46 Đường Chợ Mới, Xã Long Hòa, Huyện Cần Đước, Tỉnh Long An",Mekong1,Long An,Can Duoc,51,51
604,LAN - 299 Quốc Lộ 50,"299 QL 50, Khu 1A, TT Cần Đước, Huyện Cần Đước, Tỉnh Long An",Mekong1,Long An,Can Duoc,45,51
301,LAN - 01 Quoc Lo 50,"Số 1- 3 Quốc lộ 50, Ấp Hoà Thuận 1,Xã Trường Bình, Huyện Cần Giuộc, Tỉnh Long An,Việt Nam",Mekong1,Long An,Can Giuoc,45,51
526,LAN - 105 - 107 Quốc Lộ 50,"105 - 107 Quốc Lộ 50, Thị trấn Cần Giuộc, Huyện Cần Giuộc, Tỉnh Long An",Mekong1,Long An,Can Giuoc,44,51
312,LAN - 216 Do Tuong Phong,"216 Đỗ Tường Phong, Khóm 1, Thị Trấn Tầm Vu, H. Châu Thành, Long An",Mekong1,Long An,Chau Thanh,83,51
465,LAN - 16 Tỉnh lộ 825,"16 Đường Tỉnh lộ 825, Ấp Bình Tả 2, Xã Đức Hòa Hạ, Huyện Đức Hòa, Tỉnh Long An.",Mekong1,Long An,Duc Hoa,46,51
539,LAN - 23 DT823,"23 DT823, Ấp Đức Hạnh 2, Xã Đức Lập Hạ, Huyện Đức Hòa, Tỉnh Long An.",Mekong1,Long An,Duc Hoa,45,51
601,LAN - Thửa Đất 438 ĐT824,"Thửa đất số 438, tờ bản đồ số 7, ĐT824, Ấp Mới 2, Xã Mỹ Hạnh Nam, Huyện Đức Hòa, Tỉnh Long An",Mekong1,Long An,Duc Hoa,39,51
313,LAN - 10 Phan Chu Trinh,"Số 10 Phan Chu Trinh, Khu phố 1, Phường 1, Thị Xã Kiến Tường, Tỉnh Long An",Mekong1,Long An,Kien Tuong,130,51
172,LAN - Tan An,"70 Hùng Vương , P.2, TP. Tân An, Long An",Mekong1,Long An,Tan An,70,51
259,LAN - 167 Quoc Lo 62,"3 kios nhà số 167 Quốc lộ 62, Phường 6, Thành phố Tân An, Tỉnh Long An",Mekong1,Long An,Tan An,69,51
533,LAN - 30 Quốc Lộ 1A,"30 Quốc Lộ 1A, Phường 5, Thành phố Tân An, Tỉnh Long An.",Mekong1,Long An,Tan An,64,51
381,LAN - 450 Hung Vuong,"450 Hùng Vương, phường 3, TP Tân An, Tỉnh Long An",Mekong1,Long An,Tan An,72,51
619,LAN - 38 QL62,"38 QL62, khu phố 3, thị trấn Tân Thạnh, huyện Tân Thạnh, tỉnh Long An",Mekong1,Long An,Tan Thanh,108,51
377,LAN - 11 Nguyen Trung Truc,"11 Nguyễn Trung Trực, thị trấn Thạnh Hóa, Huyện Thạnh Hóa, Tỉnh Long An.",Mekong1,Long An,Thanh Hoa,94,51
790,LAN - 101 Quốc lộ N2,"101, đường QL N2, ấp Bình Thủy, xã Hòa Khánh Đông, huyện Đức Hòa, tỉnh Long An",Mekong1,Long An,Duc Hoa,45,51
889,LAN - 15 ĐT833,"Số 15 đường ĐT833, Thị Trấn Tân Trụ, Huyện Tân Trụ, Tỉnh Long An",Mekong1,Long An,Tan Tru,72,51
884,LAN - 159 - 160 N2,"Số 159-160 Đường Quốc Lộ N2, Xã Đức Lập Hạ, Huyện Đức Hòa, Tỉnh Long An",Mekong1,Long An,Duc Hoa,44,51
931,LAN - 50 - 52 CMT8,"Số 50-52 Đường Cách Mạng Tháng Tám, Khu phố 1, Thị Trấn Vĩnh Hưng, Huyện Vĩnh Hưng, Tỉnh Long An",Mekong1,Long An,Vinh Hung,153,51
934,LAN - 4/1 KII ô 2 Phan Văn Tình,"Số 4/1 KII Ô2 Đường Phan Văn Tình, Thị Trấn Thủ Thừa, Huyện Thủ Thừa, Tỉnh Long An",Mekong1,Long An,Thu Thua,64,51
494,NAN - 83 Nguyễn Văn Cừ,"83 Nguyễn Văn Cừ, Khối 2 Phường Trường Thi, Thành phố Vinh, Tỉnh Nghệ An",North,Nghe An,Vinh,1323,28
721,NAN - Số 2 Quang Trung,"2 Quang Trung, phường Quang Trung, Thành phố Vinh, Nghệ An",North,Nghe An,Vinh,1323,28
643,NBI - Go! Ninh Bình,"Go Ninh Bình, đường Trần Nhân Tông, xã Ninh Phúc, thành phố Ninh Bình, tỉnh Ninh Bình.",North,Ninh Binh,Ninh Binh,1533,25
299,NBI - 244 Quang Trung,"244 Quang Trung, Phường Bắc Sơn, Thành phố Tam Điệp, Tỉnh Ninh Bình",North,Ninh Binh,Tam Diep,1518,25
921,NBI - 764 - 766 Trần Hưng Đạo,"Số 764-766 đường Trần Hưng Đạo, phố Trung Nhì, Phường Tân Thành, Thành Phố Ninh Bình, Tỉnh Ninh Bình",North,Ninh Binh,Ninh Binh,1532,25
674,NTH - 119 QL1A,"119 Quốc lộ 1A, Thị trấn Phước Dân, Huyện Ninh Phước, Tỉnh Ninh Thuận",Central1,Ninh Thuan,Ninh Phuoc,310,45
741,NTH - 153 Hải Thượng Lãn Ông,"153 Hải Thượng Lãn Ông, phường Đông Hải, thành phố Phan Rang  Tháp Chàm, Ninh Thuận",Central1,Ninh Thuan,Thap Cham,319,45
263,NTH - 414-418 Ngo Gia Tu,"414-418 Ngô Gia Tự, Tp. Phan Rang, Tháp Chàm, Ninh Thuận",Central1,Ninh Thuan,Thap Cham,316,45
254,NTH - 602-604-606 Duong 21/8,"602-604-606 đường 21/8 TP Phan Rang, Tháp Chàm, Tỉnh Ninh Thuận.",Central1,Ninh Thuan,Thap Cham,317,45
182,NTH - 450A Thong Nhat,"450A Thống Nhất, P. Kinh Dinh, Tp. Phan Rang - Tháp Chàm, Tỉnh Ninh Thuận",Central1,Ninh Thuan,Thap Cham,317,45
670,NTH - 299 - 301 đường 21 tháng 8,"299 - 301 đường 21 tháng 8 phường Phước Mỹ, Phan Rang- Tháp Chàm, Ninh Thuận",Central1,Ninh Thuan,Thap Cham,318,45
873,NTH - 9D Nguyễn Văn Cừ,"9D Nguyễn Văn Cừ, phường Đài Sơn, thành phố Phan Rang-Tháp Chàm, tỉnh Ninh Thuận, Phường Đài Sơn, Thành Phố Phan Rang-Tháp Chàm, Tỉnh Ninh Thuận",Central1,Ninh Thuan,Thap Cham,317,45
261,PYN - 287B Tran Hung Dao,"287B Trần Hưng Đạo, P.4, Tp. Tuy Hòa, Phú Yên",Central2,Phu Yen,Tuy Hoa,526,39
334,PYN - 60 Nguyen Thai Hoc,"60 Nguyễn Thái Học, p5, tp Tuy Hòa, Phú Yên",Central2,Phu Yen,Tuy Hoa,526,39
796,PYN - 222-224 Phạm Văn Đồng,"222-224 Phạm Văn Đồng, khu phố Long Hải Nam, Phường Xuân Phú, TX Sông Cầu, Tỉnh Phú Yên",Central2,Phu Yen,Song Cau,579,39
197,QBI - 32 Quang Trung,"32 Quang Trung, phường Hải Đình, Tp. Đồng Hới, tỉnh Quảng Bình",Central3,Quang Binh,Dong Hoi,1123,30
198,QBI - 309 Tran Hung Dao,"309 Trần Hưng Đạo, Đồng Hới, tỉnh Quảng Bình",Central3,Quang Binh,Dong Hoi,1125,30
750,QBI - 01 Tây Hồ,"01 Tây Hồ, thị trấn Kiến Giang, huyện Lệ Thủy, tỉnh Quảng Bình",Central3,Quang Binh,Le Thuy,1092,30
830,QBI - 1 Lý Thường Kiệt,"1 Lý Thường Kiệt, khu phố 1, phường Ba Đồn, thị xã Ba Đồn, tỉnh Quảng Bình",Central3,Quang Binh,Ba Don,1166,30
416,QNA - Tran Quy Cap,"Trần Qúy Cáp (QL1A cũ), khu phố chợ Vĩnh Điện, Phường Vĩnh Điện , Thị xã Điện Bàn, Tỉnh Quảng Nam",Central2,Quang Nam,Dien Ban,844,34
354,QNA - 179 Dien Bien Phu,"179 Điện Biên Phủ, Khối phố Long Xuyên 1, Thị Trấn Nam Phước, Huyện Duy Xuyên, Tỉnh Quảng Nam",Central2,Quang Nam,Duy Xuyen,828,34
335,QNA - 550 Hai Ba Trung,"550 Hai Bà Trưng, Phường Cẩm Phô, Thành phố Hội An, Tỉnh Quảng Nam.",Central2,Quang Nam,Hoi An,838,34
706,QNA - 32 Quốc Lộ 1A Hương An,"07 Quốc lộ 1A, tổ dân phố Hương An, huyện Quế Sơn, tỉnh Quảng Nam",Central2,Quang Nam,Que Son,826,34
199,QNA - 63-65 Phan Chu Trinh,"63-65 Phan Chu Trinh, thị xã Tam Kỳ, tỉnh Quảng Nam",Central2,Quang Nam,Tam Ky,788,34
707,QNA - 787 Phan Châu Trinh,"787 Phan Châu Trinh, phường Hòa Hương, Thành Phố Tam Kỳ, tỉnh Quảng Nam",Central2,Quang Nam,Tam Ky,783,34
836,QNA - 236 Phạm Văn Đồng,"236 Phạm Văn Đồng, thị trấn Núi Thành, huyện Núi Thành, tỉnh Quảng Nam",Central2,Quang Nam,Nui Thanh,771,34
871,QNA - 693 - 695 Hùng Vương,"693 695 Hùng Vương, xã Duy Trung, huyện Duy Xuyên, tỉnh Quảng Nam",Central2,Quang Nam,Duy Xuyen,832,34
909,QNA - AI - AII Nguyễn Văn Trỗi,"số AI+AII, đường Nguyễn Văn Trỗi, phường Tân Thạnh, thành phố  Tam Kỳ, tỉnh Quảng Nam, Phường Tân Thạnh, Thành Phố Tam Kỳ, Tỉnh Quảng Nam",Central2,Quang Nam,Tam Ky,792,34
756,QNG - 458-460 Nguyễn Nghiêm,"458-460 Nguyễn Nghiêm, thị xã Đức Phổ, huyện Đức Phổ, tỉnh Quảng Ngãi",Central2,Quang Ngai,Duc Pho,666,35
390,QNG - 169 Hung Vuong,"169 Hùng Vương, Phường Trần Phú, Thành phố Quảng Ngãi, Tỉnh Quảng Ngãi",Central2,Quang Ngai,Quang Ngai,729,35
391,QNG - 386 Nguyen Nghiem,"386 Nguyễn Nghiêm, Phường Nguyễn Nghiêm, Tp Quảng Ngãi, Tỉnh Quảng Ngãi",Central2,Quang Ngai,Quang Ngai,728,35
413,QNG - 558 Quang Trung,"558 Quang Trung, Phường Nguyễn Nghiêm, TP. Quảng Ngãi, Tỉnh Quảng Ngãi",Central2,Quang Ngai,Quang Ngai,728,35
624,QNG - 282 Phạm Văn Đồng,"282 Phạm Văn Đồng, Thị trấn Châu Ổ, Huyện Bình Sơn, Tỉnh Quảng Ngãi",Central2,Quang Ngai,Quang Ngai,733,35
667,QNG - 04 Nguyễn Trãi,"04 Nguyễn Trãi, Phường Nghĩa Lộ, TP Quảng Ngãi, Tỉnh Quảng Ngãi",Central2,Quang Ngai,Quang Ngai,717,35
713,QNG - Mỹ Lại,"Thửa đất 758, thôn Mỹ Lại, xã Tịnh Khê, TP Quảng Ngãi, Quảng Ngãi",Central2,Quang Ngai,Quang Ngai,741,35
520,QNG - 2 Hai Bà Trưng,"2 Hai Bà Trưng, phường Lê Hồng Phong, Thành Phố Quảng Ngãi, tỉnh Quảng Ngãi.",Central2,Quang Ngai,Quang Ngai,730,35
557,QNI - 18 Phố Giếng Đồn,"18 Phố Giếng Đồn, phường Trần Hưng Đạo, Thành phố Hạ Long, Quảng Ninh",North,Quang Ninh,Ha Long,1726,14
658,QNI - 35 Triều Dương,"35 đường Triều Dương, Phường Trần Phú, Thành Phố Móng Cái, Tỉnh Quảng Ninh",North,Quang Ninh,Mong Cai,1862,14
773,QNI - 16 Trần Nhân Tông,"16 tổ 2 khu 2 đường Trần Nhân Tông, phường Thanh Sơn, thành phố Uông Bí, tỉnh Quảng Ninh",North,Quang Ninh,Uong Bi,1716,14
791,QTR - 36 Lê Duẫn,"36 Lê Duẫn, khóm Hữu Nghị, thị trấn Hồ Xá, huyện Vĩnh Linh, tỉnh Quảng Trị",Central3,Quang Tri,Vinh Linh,1059,31
807,QTR - 217 - 219 Trần Hưng Đạo,"217-219 Trần Hưng Đạo, phường 2, thị xã Quảng Trị, tỉnh Quảng Trị",Central3,Quang Tri,Quang Tri,1016,31
333,QTR - 84 Quoc Lo 9,"84, Quốc lộ 9, Khu phố 7, Phường 1, TP. Đông Hà, Tỉnh Quảng Trị.",Central3,Quang Tri,Dong Ha,1030,31
730,STR - 1 Mai Thanh Thế,"1, Đường Mai Thanh Thế, khóm 1, phường 1, TX. Ngã Năm, tỉnh Sóc Trăng",Mekong2,Soc Trang,Nga Nam,248,62
419,STR - 167 Tran Hung Dao,"167 Trần Hưng Đạo, Phường 03, TP Sóc Trăng, Tỉnh Sóc Trăng.",Mekong2,Soc Trang,Soc Trang,236,62
251,STR - 31-33 Hai Ba Trung,"31-33 , đường Hai Bà Trưng, phường 1 , thành phố Sóc Trăng, tỉnh Sóc Trăng.",Mekong2,Soc Trang,Soc Trang,235,62
269,STR - 79-81 Hung Vuong,"79-81, đường Hùng Vương, phường 6 , thành phố Sóc Trăng tỉnh Sóc Trăng",Mekong2,Soc Trang,Soc Trang,234,62
402,STR - 39-41 Nguyen Hue,"39-41 Nguyễn Huệ, Khóm 1, Phường 1, Thị xã Vĩnh Châu, Tỉnh Sóc Trăng.",Mekong2,Soc Trang,Vinh Chau,276,62
767,STR - Nam Sông Hậu,"Nam Sông Hậu, Ấp Đầu Giồng, TT. Trần Đề, Huyện Trần Đề, Tỉnh Sóc Trăng",Mekong2,Soc Trang,Tran De,250,62
916,STR - 1 Phan Văn Hùng,"Số 01 Đường Phan Văn Hùng, Thị Trấn Kế Sách, Huyện Kế Sách, Tỉnh Sóc Trăng",Mekong2,Soc Trang,Ke Sach,217,62
387,TNI - 308 Tinh Lo 782,"308 Tỉnh Lộ 782, tổ 4, ấp Phước Đức, xã Phước Đông, huyện Gò Dầu, tỉnh Tây Ninh",SouthEast1,Tay Ninh,Go Dau,62,46
522,TNI - 410 Quốc lộ 22B,"410 Quốc lộ 22B, Khu phố Nội ô A, Thị trấn Gò Dầu, Huyện Gò Dầu, Tỉnh Tây Ninh",SouthEast1,Tay Ninh,Go Dau,64,46
653,TNI - 15 ĐT782,"15 đường ĐT782, ấp Phước Đức B, xã Phước Đông, huyện Gò Dầu, tỉnh Tây Ninh",SouthEast1,Tay Ninh,Go Dau,58,46
558,TNI - 363 Châu Văn Liêm,"363 Châu Văn Liêm, Ấp Hiệp Long, Xã Hiệp Tân, H.Hoà Thành, Tây Ninh",SouthEast1,Tay Ninh,Hoa Thanh,101,46
127,TNI - 15-17 Pham Hung,"15-17 Phạm Hùng, Khu phố 2, TT. Hòa Thành,  Tỉnh Tây Ninh",SouthEast1,Tay Ninh,Hoa Thanh,100,46
718,TNI - 138 Tôn Đức Thắng,"138 Tôn Đức Thắng, Phường Long Thành Trung, Thị Xã Hoà Thành, Tỉnh Tây Ninh",SouthEast1,Tay Ninh,Hoa Thanh,93,46
587,TNI - 02-04 Nguyễn Chí Thanh,"02 - 04 đường Nguyễn Chí Thanh, Thị trấn Tân Biên, Huyện Tân Biên, Tỉnh Tây Ninh",SouthEast1,Tay Ninh,Tan Bien,125,46
554,TNI - 129 Tôn Đức Thắng,"129 Tôn Đức Thắng, Khu phố 1, thị trấn Tân Châu, Huyện Tân Châu, tỉnh Tây Ninh.",SouthEast1,Tay Ninh,Tan Chau,109,46
635,TNI - 404 đường 30/4,"404 đường 30/4, Phường 3, TP. Tây Ninh, Tỉnh Tây Ninh",SouthEast1,Tay Ninh,Tay Ninh,103,46
110,TNI - 518 CMT8,"518 Cách Mạng Tháng Tám, P3, Tây Ninh",SouthEast1,Tay Ninh,Tay Ninh,101,46
462,TNI - 1186 CMT8,"1186 đường Cách Mạng Tháng Tám, Khu Phố 2, Phường 4, Thành Phố Tây Ninh, Tỉnh Tây Ninh",SouthEast1,Tay Ninh,Tay Ninh,99,46
524,TNI - 232 Cách Mạng Tháng Tám,"232 Cách Mạng Tháng Tám, Khu phố 1, Phường 2, Thành Phố Tây Ninh, Tỉnh Tây Ninh",SouthEast1,Tay Ninh,Tay Ninh,102,46
725,TNI - 154-156 đường 30/4,"154-156 đường 30/4, khu phố 4, phường 3, TP Tây Ninh, tỉnh Tây Ninh",SouthEast1,Tay Ninh,Tay Ninh,102,46
711,TNI - 438D-440 Bời Lời,"438D - 440 đường Bời Lời, khu phố Ninh Trung, phường Ninh Sơn, TP Tây Ninh, tỉnh Tây Ninh",SouthEast1,Tay Ninh,Tay Ninh,103,46
754,TNI - 134 Trưng Nữ Vương,"134 Trưng Nữ Vương, Khu phố 1, Phường 2, Thành phố Tây Ninh, tỉnh Tây Ninh",SouthEast1,Tay Ninh,Tay Ninh,103,46
760,TNI - 483 đường 30 tháng 4,"483 đường Ba Mươi Tháng 4, khu phố 1, Phường 1, Thành phố Tây Ninh, tỉnh Tây Ninh",SouthEast1,Tay Ninh,Tay Ninh,105,46
214,TNI - 180 Quoc Lo 22,"180 Quốc Lộ 22, khu phố Lộc Du, thị trấn Trảng Bảng, tỉnh Tây Ninh",SouthEast1,Tay Ninh,Trang Bang,52,46
541,TNI - Quốc Lộ 22,"Quốc Lộ 22, Tổ 6, Khu phố An Bình, Phường An Tịnh, Thị xã Trảng Bàng, Tỉnh Tây Ninh",SouthEast1,Tay Ninh,Trang Bang,49,46
829,TNI - 339 Hoàng Lê Kha,"Số thửa 339, tờ bản đồ 12, đường Hoàng Lê Kha, tổ 11, Khu Phố 3, Thị Trấn Châu Thành, huyện Châu Thành, tỉnh Tây Ninh",SouthEast1,Tay Ninh,Chau Thanh,110,46
870,TNI - 120 đường 22B,"Thửa 120, tờ bản đồ 76, đường 22B, ấp Tân Hòa, xã Tân Lập, Thị Trấn Tân Biên, Huyện Tân Biên, Tỉnh Tây Ninh",SouthEast1,Tay Ninh,Tan Bien,132,46
854,TNI - 324 TL 785,"Thửa 324, tờ bản đồ 17, Tỉnh lộ 785,tổ 14, Ấp Tân Tây, Xã Tân Hưng, Huyện Tân Châu, Tỉnh Tây Ninh",SouthEast1,Tay Ninh,Tan Chau,103,46
918,TNI - 713 Điện Biên Phủ,"713 Điện Biên Phủ, khu phố Ninh Phước, Phường Ninh Thạnh, Thành Phố Tây Ninh, Tỉnh Tây Ninh",SouthEast1,Tay Ninh,Tay Ninh,98,46
913,TNI - 611 ĐT781,"Số 611 đường ĐT 781, tổ 7, ấp Phước Tân 3, Xã Phan, Huyện Dương Minh Châu, Tỉnh Tây Ninh",SouthEast1,Tay Ninh,Duong Minh Chau,93,46
920,TNI - 298 - 300 Nguyễn Chí Thanh,"Số 298-300 đường Nguyễn Chí Thanh, Tổ 6, Khu phố 2, Thị Trấn Dương Minh Châu, Huyện Dương Minh Châu, Tỉnh Tây Ninh",SouthEast1,Tay Ninh,Duong Minh Chau,89,46
644,TBI - Go! Thái Bình,"Go Thái Bình, đường Trần Thái Tông, phường Phú Khánh, tỉnh Thái Bình",North,Thai Binh,Thai Binh,1582,23
237,TNG - 662 Pham Van Dong,"662 - 664 Phạm Văn Đồng, phường Ba Hàng. TX. Phổ Yên, tỉnh Thái Nguyên",North,Thai Nguyen,Pho Yen,1680,10
616,TNG-GO! Mall Thái Nguyên,"GO! Thái Nguyên khu dân cư đường Việt Bắc, phường Tân Lập, thành phố Thái Nguyên, tỉnh Thái Nguyên.",North,Thai Nguyen,Thai Nguyen,1700,10
684,THO - 300 - 302 Trần Phú,"300 - 302 đường Trần Phú, phường Ba Đình, thành phố Thanh Hoá, tỉnh Thanh Hoá",North,Thanh Hoa,Thanh Hoa,1468,26
901,THO - 698 Trung Sơn,"DV-01:10 thửa đất số 698 tờ bản đồ số 08, Phường Trung Sơn, Thành Phố Sầm Sơn, Tỉnh Thanh Hóa",North,Thanh Hoa,Sam Son,1468,26
475,TGI - 210 Đường Tỉnh 875,"210 Đường Tỉnh 875, tổ 18, khu 3, Thị Trấn Cái Bè, Huyện Cái Bè, Tỉnh Tiền Giang",Mekong1,Tien Giang,Cai Be,120,55
625,TGI - 02 đường 30/04,"02 đường 30/04, khu phố 1, phường 1, Thị xã Cai Lậy, tỉnh Tiền Giang",Mekong1,Tien Giang,Cai Lay,102,55
496,TGI - 458/2 Quốc Lộ 1A,"458/2 Quốc Lộ 1A, Ấp Tân Phong, Xã Tân Lý Tây, Huyện Châu Thành, Tỉnh Tiền Giang",Mekong1,Tien Giang,Chau Thanh,82,55
373,TGI - 2/4 Quốc Lộ 1A,"2/4 Quốc Lộ 1A, Ấp Rẫy, Thị Trấn Tân Hiệp, Huyện Châu Thành, Tỉnh Tiền Giang",Mekong1,Tien Giang,Chau Thanh,82,55
709,TGI - 169/1 QL1A,"169/1 QL1A, ấp Tân Hòa, xã Tân Hương, huyện Châu Thành, Tiền Giang",Mekong1,Tien Giang,Chau Thanh,82,55
350,TGI - Ap Long Thanh,"Ấp Long Thạnh, xã Long Bình Điền, Huyện Chợ Gạo, Tiền Giang",Mekong1,Tien Giang,Cho Gao,46,55
240,TGI - 364-365 Nguyen Hue,"364-365 Nguyễn Huệ, KP 3, P.2, TX. Gò Công, Tiền Giang",Mekong1,Tien Giang,Go Cong,81,55
512,TGI - 39B Quốc Lộ 50,"39B Quốc Lộ 50, Khu phố 5, Thị trấn Vĩnh Bình, Huyện Gò Công Tây, Tỉnh Tiền Giang",Mekong1,Tien Giang,Go Cong Tay,89,55
159,TGI - 124 Dinh Bo Linh,"124 Đinh Bộ Lĩnh, Phường 2, TP Mỹ Tho, Tỉnh Tiền Giang",Mekong1,Tien Giang,My Tho,94,55
128,TGI - 42 Ap Bac,"42 Ấp Bắc, P5, TP. Mỹ Tho, Tiền Giang",Mekong1,Tien Giang,My Tho,89,55
376,TGI - 57/8 Le Thi Hong Gam,"57/8 đường Lê Thị Hồng Gấm, phường 6, thành phố Mỹ Tho, tỉnh Tiền Giang.",Mekong1,Tien Giang,My Tho,93,55
330,TGI - 68 Hung Vuong,"68 Hùng Vương, TP Mỹ Tho, Tiền Giang.",Mekong1,Tien Giang,My Tho,92,55
474,TVI - 12 Điện Biên Phủ,"12 Điện Biên Phủ, Phường 06, Thành phố Trà Vinh, Tỉnh Trà Vinh",Mekong2,Tra Vinh,Tra Vinh,145,60
291,TVI - 62 Dien Bien Phu,"62 Điện Biên Phủ, Khóm 3, Phường 2, Thành phố Trà Vinh, Tỉnh Trà Vinh",Mekong2,Tra Vinh,Tra Vinh,145,60
798,TVI - 172-174 Đường 30/4,"172-174, Đường 30/4, Khóm 4, Thị trấn Cầu Kè, Huyện Cầu Kè, Tỉnh Trà Vinh",Mekong2,Tra Vinh,Cau Ke,171,60
266,VLO - Nguyen Van Thanh,"Đường Nguyễn Văn Thảnh, Tổ 24, Khóm 5, Phường Thành Phước, Thị Xã Bình Minh, Tỉnh Vĩnh Long",Mekong2,Vinh Long,Binh Minh,169,58
117,VLO - 47 Trung Nu Vuong,"47 Trưng Nữ Vương, P1, Tp. Vĩnh Long",Mekong2,Vinh Long,Vinh Long,145,58
472,VLO - 64/6D Trần Phú,"64/6D Trần Phú, Phường 4, Thành phố Vĩnh Long, Tỉnh Vĩnh Long",Mekong2,Vinh Long,Vinh Long,149,58
586,VLO - Thị trấn Vũng Liêm,"Thửa đất số 311-312, tờ bản đồ số 9, đường Nam Kỳ Khởi Nghĩa, Khóm 2, Thị trấn Vũng Liêm, Huyện Vũng Liêm, Tỉnh Vĩnh Long",Mekong2,Vinh Long,Vung Liem,152,58
770,VLO - Đường số 7,"Đường số 7, Khu đô thị mới Song Phú, ấp Phú Ninh, xã Song Phú, huyện Tam Bình, tỉnh Vĩnh Long",Mekong2,Vinh Long,Tam Binh,165,58
786,VLO - 60/45D Thống Chế Điều Bát,"60/45D Đường Thống Chế Điều Bát, Khu 3, thị trấn Trà Ôn, huyện Trà Ôn, tỉnh Vĩnh Long.",Mekong2,Vinh Long,Tra On,181,58
840,VLO - 12 Phan Văn Đáng,"12 đường Phan Văn Đáng, Khóm 1, Thị trấn Tam Bình, Huyện Tam Bình, Tỉnh Vĩnh Long",Mekong2,Vinh Long,Tam Binh,172,58
839,VLO - 478-480 Lưu Nhơn Sâm,"478-480, đường Lưu Nhơn Sâm, Khóm Đông Thuận, phường Đông Thuận, Thị xã Bình Minh, Tỉnh Vĩnh Long.",Mekong2,Vinh Long,Binh Minh,169,58
201,VPH - 147 Hai Ba Trung,"Số Nhà 147 Đường Hai Bà Trưng, Phường Hùng Vương, Thành phố Phúc Yên, Tỉnh Vĩnh Phúc, Việt Nam",North,Vinh Phuc,Phuc Yen,1657,12
654,YBA - 6 Nguyễn Thái Học,"6 đường Nguyễn Thái Học, phường Nguyễn Thái Học, thành phố Yên Bái, tỉnh Yên Bái",North,Yen Bai,Yen Bai,1775,8
